{
  "type": "FeatureCollection",
  "features": [
    {
      "type": "Feature",
      "geometry": {
        "type": "LineString",
        "coordinates": [
          [
            -90.4068,
            38.5831
          ],
          [
            -89.6448765,
            39.7973527
          ],
          [
            -89.6118533,
            43.0817879
          ],
          [
            -86.0547162,
            44.8111976
          ],
          [
            -86.6238153,
            46.4237239
          ],
          [
            -88.5637537,
            47.1229405
          ],
          [
            -88.4523448,
            47.2440788
          ],
          [
            -89.6857677,
            47.9609724
          ],
          [
            -90.8887619,
            46.9463335
          ],
          [
            -93.1042897,
            44.9470685
          ],
          [
            -96.3210255,
            44.0095584
          ],
          [
            -105.5374053,
            44.2828717
          ],
          [
            -107.568534,
            43.1700264
          ],
          [
            -106.3371601,
            42.8663425
          ],
          [
            -103.7074807,
            41.8286261
          ],
          [
            -105.5059,
            40.375336
          ],
          [
            -105.6101747,
            40.3869075
          ],
          [
            -107.1656373,
            38.4666356
          ],
          [
            -108.0002137,
            36.8345857
          ],
          [
            -106.2761014,
            35.79499
          ],
          [
            -106.7106283,
            35.1344849
          ],
          [
            -106.241929,
            34.5177349
          ],
          [
            -106.1722449,
            32.779621
          ],
          [
            -104.4445002,
            32.175424
          ],
          [
            -103.194174,
            34.439407
          ],
          [
            -101.5862787,
            35.6432673
          ],
          [
            -103.9803504,
            36.7787156
          ],
          [
            -103.4293894,
            38.0405317
          ],
          [
            -102.3087324,
            38.0624519
          ],
          [
            -99.1018604,
            38.1881528
          ],
          [
            -96.7332497,
            40.2658382
          ],
          [
            -94.4233448,
            39.0937292
          ],
          [
            -90.4068,
            38.5831
          ]
        ]
      },
      "properties": {
        "trip_number": 5,
        "total_sites": 32,
        "total_distance_miles": 4095.8,
        "total_days": 13.96
      }
    },
    {
      "type": "Feature",
      "geometry": {
        "type": "Point",
        "coordinates": [
          -90.4068,
          38.5831
        ]
      },
      "properties": {
        "name": "Kirkwood, MO",
        "arrival_day": 1,
        "arrival_time": "06:00"
      }
    },
    {
      "type": "Feature",
      "geometry": {
        "type": "Point",
        "coordinates": [
          -89.6448765,
          39.7973527
        ]
      },
      "properties": {
        "name": "Springfield 1908 Race Riot National Monument, Springfield, Illinois",
        "arrival_day": 1,
        "arrival_time": "09:41"
      }
    },
    {
      "type": "Feature",
      "geometry": {
        "type": "Point",
        "coordinates": [
          -89.6118533,
          43.0817879
        ]
      },
      "properties": {
        "name": "Ice Age National Scenic Trail, Cross Plains, Wisconsin",
        "arrival_day": 1,
        "arrival_time": "15:48"
      }
    },
    {
      "type": "Feature",
      "geometry": {
        "type": "Point",
        "coordinates": [
          -86.0547162,
          44.8111976
        ]
      },
      "properties": {
        "name": "Sleeping Bear Dunes NL, Empire, Michigan",
        "arrival_day": 2,
        "arrival_time": "21:40"
      }
    },
    {
      "type": "Feature",
      "geometry": {
        "type": "Point",
        "coordinates": [
          -86.6238153,
          46.4237239
        ]
      },
      "properties": {
        "name": "Pictured Rocks NL, Munising, Michigan",
        "arrival_day": 2,
        "arrival_time": "01:45"
      }
    },
    {
      "type": "Feature",
      "geometry": {
        "type": "Point",
        "coordinates": [
          -88.5637537,
          47.1229405
        ]
      },
      "properties": {
        "name": "Isle Royale NP, Houghton, Michigan",
        "arrival_day": 3,
        "arrival_time": "05:38"
      }
    },
    {
      "type": "Feature",
      "geometry": {
        "type": "Point",
        "coordinates": [
          -88.4523448,
          47.2440788
        ]
      },
      "properties": {
        "name": "Keweenaw NHP, Calumet, Michigan",
        "arrival_day": 3,
        "arrival_time": "07:48"
      }
    },
    {
      "type": "Feature",
      "geometry": {
        "type": "Point",
        "coordinates": [
          -89.6857677,
          47.9609724
        ]
      },
      "properties": {
        "name": "Grand Portage NM, Grand Portage, Minnesota",
        "arrival_day": 3,
        "arrival_time": "11:10"
      }
    },
    {
      "type": "Feature",
      "geometry": {
        "type": "Point",
        "coordinates": [
          -90.8887619,
          46.9463335
        ]
      },
      "properties": {
        "name": "Apostle Islands NL, Bayfield, Wisconsin",
        "arrival_day": 4,
        "arrival_time": "14:48"
      }
    },
    {
      "type": "Feature",
      "geometry": {
        "type": "Point",
        "coordinates": [
          -93.1042897,
          44.9470685
        ]
      },
      "properties": {
        "name": "Mississippi NRRA, St Paul, Minnesota",
        "arrival_day": 4,
        "arrival_time": "19:58"
      }
    },
    {
      "type": "Feature",
      "geometry": {
        "type": "Point",
        "coordinates": [
          -96.3210255,
          44.0095584
        ]
      },
      "properties": {
        "name": "Pipestone NM, Pipestone, Minnesota",
        "arrival_day": 5,
        "arrival_time": "01:04"
      }
    },
    {
      "type": "Feature",
      "geometry": {
        "type": "Point",
        "coordinates": [
          -105.5374053,
          44.2828717
        ]
      },
      "properties": {
        "name": "Shenandoah NP, Front Royal, 22630",
        "arrival_day": 6,
        "arrival_time": "11:22"
      }
    },
    {
      "type": "Feature",
      "geometry": {
        "type": "Point",
        "coordinates": [
          -107.568534,
          43.1700264
        ]
      },
      "properties": {
        "name": "Fort Laramie NHS, Fort Laramie, Wyoming",
        "arrival_day": 6,
        "arrival_time": "15:40"
      }
    },
    {
      "type": "Feature",
      "geometry": {
        "type": "Point",
        "coordinates": [
          -106.3371601,
          42.8663425
        ]
      },
      "properties": {
        "name": "Mormon Pioneer NHT, Casper, 82601",
        "arrival_day": 7,
        "arrival_time": "18:51"
      }
    },
    {
      "type": "Feature",
      "geometry": {
        "type": "Point",
        "coordinates": [
          -103.7074807,
          41.8286261
        ]
      },
      "properties": {
        "name": "Scotts Bluff NM, Gering, Nebraska",
        "arrival_day": 7,
        "arrival_time": "23:37"
      }
    },
    {
      "type": "Feature",
      "geometry": {
        "type": "Point",
        "coordinates": [
          -105.5059,
          40.375336
        ]
      },
      "properties": {
        "name": "Rocky Mountain NP, Estes Park, Colorado",
        "arrival_day": 8,
        "arrival_time": "04:06"
      }
    },
    {
      "type": "Feature",
      "geometry": {
        "type": "Point",
        "coordinates": [
          -105.6101747,
          40.3869075
        ]
      },
      "properties": {
        "name": "Prince William Forest Park, Triangle, 22172",
        "arrival_day": 8,
        "arrival_time": "06:12"
      }
    },
    {
      "type": "Feature",
      "geometry": {
        "type": "Point",
        "coordinates": [
          -107.1656373,
          38.4666356
        ]
      },
      "properties": {
        "name": "Curecanti NRA, Gunnison, Colorado",
        "arrival_day": 8,
        "arrival_time": "11:02"
      }
    },
    {
      "type": "Feature",
      "geometry": {
        "type": "Point",
        "coordinates": [
          -108.0002137,
          36.8345857
        ]
      },
      "properties": {
        "name": "Aztec Ruins NM, Aztec, New Mexico",
        "arrival_day": 9,
        "arrival_time": "15:14"
      }
    },
    {
      "type": "Feature",
      "geometry": {
        "type": "Point",
        "coordinates": [
          -106.2761014,
          35.79499
        ]
      },
      "properties": {
        "name": "Bandelier NM, Los Alamos, New Mexico",
        "arrival_day": 9,
        "arrival_time": "19:24"
      }
    },
    {
      "type": "Feature",
      "geometry": {
        "type": "Point",
        "coordinates": [
          -106.7106283,
          35.1344849
        ]
      },
      "properties": {
        "name": "Petroglyph NM, Albuquerque, New Mexico",
        "arrival_day": 10,
        "arrival_time": "22:20"
      }
    },
    {
      "type": "Feature",
      "geometry": {
        "type": "Point",
        "coordinates": [
          -106.241929,
          34.5177349
        ]
      },
      "properties": {
        "name": "Salinas Pueblo Missions NM, Mountainair, New Mexico",
        "arrival_day": 10,
        "arrival_time": "01:14"
      }
    },
    {
      "type": "Feature",
      "geometry": {
        "type": "Point",
        "coordinates": [
          -106.1722449,
          32.779621
        ]
      },
      "properties": {
        "name": "White Sands NP, Alamogordo, New Mexico",
        "arrival_day": 10,
        "arrival_time": "05:25"
      }
    },
    {
      "type": "Feature",
      "geometry": {
        "type": "Point",
        "coordinates": [
          -104.4445002,
          32.175424
        ]
      },
      "properties": {
        "name": "Carlsbad Caverns NP, Carlsbad, New Mexico",
        "arrival_day": 11,
        "arrival_time": "09:23"
      }
    },
    {
      "type": "Feature",
      "geometry": {
        "type": "Point",
        "coordinates": [
          -103.194174,
          34.439407
        ]
      },
      "properties": {
        "name": "Colonial NHP, Yorktown, 23690",
        "arrival_day": 11,
        "arrival_time": "14:30"
      }
    },
    {
      "type": "Feature",
      "geometry": {
        "type": "Point",
        "coordinates": [
          -101.5862787,
          35.6432673
        ]
      },
      "properties": {
        "name": "Lake Meredith NRA, Fritch, Texas",
        "arrival_day": 12,
        "arrival_time": "18:44"
      }
    },
    {
      "type": "Feature",
      "geometry": {
        "type": "Point",
        "coordinates": [
          -103.9803504,
          36.7787156
        ]
      },
      "properties": {
        "name": "Capulin Volcano NM, Capulin, New Mexico",
        "arrival_day": 12,
        "arrival_time": "23:32"
      }
    },
    {
      "type": "Feature",
      "geometry": {
        "type": "Point",
        "coordinates": [
          -103.4293894,
          38.0405317
        ]
      },
      "properties": {
        "name": "Bent's Old Fort NHS, La Junta, Colorado",
        "arrival_day": 13,
        "arrival_time": "03:12"
      }
    },
    {
      "type": "Feature",
      "geometry": {
        "type": "Point",
        "coordinates": [
          -102.3087324,
          38.0624519
        ]
      },
      "properties": {
        "name": "Amache NHS, Granada, Colorado",
        "arrival_day": 13,
        "arrival_time": "06:18"
      }
    },
    {
      "type": "Feature",
      "geometry": {
        "type": "Point",
        "coordinates": [
          -99.1018604,
          38.1881528
        ]
      },
      "properties": {
        "name": "Fort Larned NHS, Larned, Kansas",
        "arrival_day": 14,
        "arrival_time": "11:28"
      }
    },
    {
      "type": "Feature",
      "geometry": {
        "type": "Point",
        "coordinates": [
          -96.7332497,
          40.2658382
        ]
      },
      "properties": {
        "name": "Homestead NHP, Beatrice, Nebraska",
        "arrival_day": 14,
        "arrival_time": "16:56"
      }
    },
    {
      "type": "Feature",
      "geometry": {
        "type": "Point",
        "coordinates": [
          -94.4233448,
          39.0937292
        ]
      },
      "properties": {
        "name": "Harry S Truman NHS, Independence, Missouri",
        "arrival_day": 15,
        "arrival_time": "21:36"
      }
    },
    {
      "type": "Feature",
      "geometry": {
        "type": "Point",
        "coordinates": [
          -90.4068,
          38.5831
        ]
      },
      "properties": {
        "name": "Kirkwood, MO",
        "arrival_day": 15,
        "arrival_time": "01:34"
      }
    }
  ]
}