{
  "type": "FeatureCollection",
  "features": [
    {
      "type": "Feature",
      "geometry": {
        "type": "LineString",
        "coordinates": [
          [
            -90.4068,
            38.5831
          ],
          [
            -89.6448765,
            39.7973527
          ],
          [
            -91.3454687,
            41.6707487
          ],
          [
            -94.4233448,
            39.0937292
          ],
          [
            -94.7065998,
            37.8436759
          ],
          [
            -92.7447,
            36.0097
          ],
          [
            -87.8625811,
            36.4831363
          ],
          [
            -90.4068,
            38.5831
          ]
        ]
      },
      "properties": {
        "trip_number": 1,
        "total_sites": 6,
        "total_distance_miles": 1220.7,
        "total_days": 4
      }
    },
    {
      "type": "Feature",
      "geometry": {
        "type": "Point",
        "coordinates": [
          -90.4068,
          38.5831
        ]
      },
      "properties": {
        "name": "Kirkwood, MO",
        "arrival_day": 1,
        "arrival_time": "06:00"
      }
    },
    {
      "type": "Feature",
      "geometry": {
        "type": "Point",
        "coordinates": [
          -89.6448765,
          39.7973527
        ]
      },
      "properties": {
        "name": "Springfield 1908 Race Riot National Monument, Springfield, Illinois",
        "arrival_day": 1,
        "arrival_time": "10:41"
      }
    },
    {
      "type": "Feature",
      "geometry": {
        "type": "Point",
        "coordinates": [
          -91.3454687,
          41.6707487
        ]
      },
      "properties": {
        "name": "Herbert Hoover NHS, West Branch, Iowa",
        "arrival_day": 1,
        "arrival_time": "15:32"
      }
    },
    {
      "type": "Feature",
      "geometry": {
        "type": "Point",
        "coordinates": [
          -94.4233448,
          39.0937292
        ]
      },
      "properties": {
        "name": "Harry S Truman NHS, Independence, Missouri",
        "arrival_day": 2,
        "arrival_time": "10:54"
      }
    },
    {
      "type": "Feature",
      "geometry": {
        "type": "Point",
        "coordinates": [
          -94.7065998,
          37.8436759
        ]
      },
      "properties": {
        "name": "Fort Scott NHS, Fort Scott, Kansas",
        "arrival_day": 2,
        "arrival_time": "14:29"
      }
    },
    {
      "type": "Feature",
      "geometry": {
        "type": "Point",
        "coordinates": [
          -92.7447,
          36.0097
        ]
      },
      "properties": {
        "name": "Buffalo NR, St. Joe, Arkansas",
        "arrival_day": 3,
        "arrival_time": "09:30"
      }
    },
    {
      "type": "Feature",
      "geometry": {
        "type": "Point",
        "coordinates": [
          -87.8625811,
          36.4831363
        ]
      },
      "properties": {
        "name": "Fort Donelson NB, Dover, Tennessee",
        "arrival_day": 4,
        "arrival_time": "06:28"
      }
    },
    {
      "type": "Feature",
      "geometry": {
        "type": "Point",
        "coordinates": [
          -90.4068,
          38.5831
        ]
      },
      "properties": {
        "name": "Kirkwood, MO",
        "arrival_day": 1,
        "arrival_time": "06:00"
      }
    }
  ]
}