{
  "type": "FeatureCollection",
  "features": [
    {
      "type": "Feature",
      "geometry": {
        "type": "LineString",
        "coordinates": [
          [
            -90.4068,
            38.5831
          ],
          [
            -92.4479108,
            35.2048883
          ],
          [
            -92.4479108,
            35.2048883
          ],
          [
            -92.7447,
            36.0097
          ],
          [
            -94.7065998,
            37.8436759
          ],
          [
            -94.4233448,
            39.0937292
          ],
          [
            -91.3454687,
            41.6707487
          ],
          [
            -90.4068,
            38.5831
          ]
        ]
      },
      "properties": {
        "trip_number": 2,
        "total_sites": 6,
        "total_distance_miles": 1031.5,
        "total_days": 3
      }
    },
    {
      "type": "Feature",
      "geometry": {
        "type": "Point",
        "coordinates": [
          -90.4068,
          38.5831
        ]
      },
      "properties": {
        "name": "Kirkwood, MO",
        "arrival_day": 1,
        "arrival_time": "06:00"
      }
    },
    {
      "type": "Feature",
      "geometry": {
        "type": "Point",
        "coordinates": [
          -92.4479108,
          35.2048883
        ]
      },
      "properties": {
        "name": "Arkansas Post N MEM, Gillett, Arkansas",
        "arrival_day": 1,
        "arrival_time": "12:42"
      }
    },
    {
      "type": "Feature",
      "geometry": {
        "type": "Point",
        "coordinates": [
          -92.4479108,
          35.2048883
        ]
      },
      "properties": {
        "name": "Pea Ridge NMP, Garfield, Arkansas",
        "arrival_day": 1,
        "arrival_time": "14:42"
      }
    },
    {
      "type": "Feature",
      "geometry": {
        "type": "Point",
        "coordinates": [
          -92.7447,
          36.0097
        ]
      },
      "properties": {
        "name": "Buffalo NR, St. Joe, Arkansas",
        "arrival_day": 2,
        "arrival_time": "07:45"
      }
    },
    {
      "type": "Feature",
      "geometry": {
        "type": "Point",
        "coordinates": [
          -94.7065998,
          37.8436759
        ]
      },
      "properties": {
        "name": "Fort Scott NHS, Fort Scott, Kansas",
        "arrival_day": 2,
        "arrival_time": "12:46"
      }
    },
    {
      "type": "Feature",
      "geometry": {
        "type": "Point",
        "coordinates": [
          -94.4233448,
          39.0937292
        ]
      },
      "properties": {
        "name": "Harry S Truman NHS, Independence, Missouri",
        "arrival_day": 3,
        "arrival_time": "07:21"
      }
    },
    {
      "type": "Feature",
      "geometry": {
        "type": "Point",
        "coordinates": [
          -91.3454687,
          41.6707487
        ]
      },
      "properties": {
        "name": "Herbert Hoover NHS, West Branch, Iowa",
        "arrival_day": 3,
        "arrival_time": "13:43"
      }
    },
    {
      "type": "Feature",
      "geometry": {
        "type": "Point",
        "coordinates": [
          -90.4068,
          38.5831
        ]
      },
      "properties": {
        "name": "Kirkwood, MO",
        "arrival_day": 1,
        "arrival_time": "06:00"
      }
    }
  ]
}