{
  "type": "FeatureCollection",
  "features": [
    {
      "type": "Feature",
      "geometry": {
        "type": "LineString",
        "coordinates": [
          [
            -90.4068,
            38.5831
          ],
          [
            -94.7065998,
            37.8436759
          ],
          [
            -94.4310733,
            35.388505
          ],
          [
            -94.1798525,
            34.2939248
          ],
          [
            -97.5172885,
            35.4737199
          ],
          [
            -96.9789694,
            34.4937367
          ],
          [
            -98.5456116,
            31.2638905
          ],
          [
            -98.5456116,
            31.2638905
          ],
          [
            -98.5456116,
            31.2638905
          ],
          [
            -98.5456116,
            31.2638905
          ],
          [
            -98.5456116,
            31.2638905
          ],
          [
            -98.5456116,
            31.2638905
          ],
          [
            -98.5456116,
            31.2638905
          ],
          [
            -100.98844,
            29.466018
          ],
          [
            -98.4788872,
            29.3603458
          ],
          [
            -97.4817606,
            26.0049965
          ],
          [
            -97.2990078,
            27.4243667
          ],
          [
            -93.0024144,
            31.6655406
          ],
          [
            -91.3855572,
            31.5470831
          ],
          [
            -90.0647995,
            29.9548546
          ],
          [
            -88.7865166,
            30.3988806
          ],
          [
            -90.212145,
            32.340878
          ],
          [
            -90.3697739,
            33.9711973
          ],
          [
            -92.2973826,
            34.7381346
          ],
          [
            -92.4479108,
            35.2048883
          ],
          [
            -92.4479108,
            35.2048883
          ],
          [
            -92.4479108,
            35.2048883
          ],
          [
            -90.4068,
            38.5831
          ]
        ]
      },
      "properties": {
        "trip_number": 7,
        "total_sites": 27,
        "total_distance_miles": 2849.8,
        "total_days": 10.78
      }
    },
    {
      "type": "Feature",
      "geometry": {
        "type": "Point",
        "coordinates": [
          -90.4068,
          38.5831
        ]
      },
      "properties": {
        "name": "Kirkwood, MO",
        "arrival_day": 1,
        "arrival_time": "06:00"
      }
    },
    {
      "type": "Feature",
      "geometry": {
        "type": "Point",
        "coordinates": [
          -94.7065998,
          37.8436759
        ]
      },
      "properties": {
        "name": "Fort Scott NHS, Fort Scott, Kansas",
        "arrival_day": 1,
        "arrival_time": "12:20"
      }
    },
    {
      "type": "Feature",
      "geometry": {
        "type": "Point",
        "coordinates": [
          -94.4310733,
          35.388505
        ]
      },
      "properties": {
        "name": "Fort Smith NHS, Fort Smith, Arkansas",
        "arrival_day": 2,
        "arrival_time": "17:25"
      }
    },
    {
      "type": "Feature",
      "geometry": {
        "type": "Point",
        "coordinates": [
          -94.1798525,
          34.2939248
        ]
      },
      "properties": {
        "name": "Gauley River NRA, Lansing, 25862",
        "arrival_day": 2,
        "arrival_time": "20:48"
      }
    },
    {
      "type": "Feature",
      "geometry": {
        "type": "Point",
        "coordinates": [
          -97.5172885,
          35.4737199
        ]
      },
      "properties": {
        "name": "Oklahoma City N MEM, Oklahoma City, Oklahoma",
        "arrival_day": 3,
        "arrival_time": "02:32"
      }
    },
    {
      "type": "Feature",
      "geometry": {
        "type": "Point",
        "coordinates": [
          -96.9789694,
          34.4937367
        ]
      },
      "properties": {
        "name": "Chickasaw NRA, Sulphur, Oklahoma",
        "arrival_day": 3,
        "arrival_time": "05:53"
      }
    },
    {
      "type": "Feature",
      "geometry": {
        "type": "Point",
        "coordinates": [
          -98.5456116,
          31.2638905
        ]
      },
      "properties": {
        "name": "Alibates Flint Quarries NM, Fritch, Texas",
        "arrival_day": 4,
        "arrival_time": "12:15"
      }
    },
    {
      "type": "Feature",
      "geometry": {
        "type": "Point",
        "coordinates": [
          -98.5456116,
          31.2638905
        ]
      },
      "properties": {
        "name": "Rio Grande WSR, Big Bend National Park, Texas",
        "arrival_day": 4,
        "arrival_time": "14:15"
      }
    },
    {
      "type": "Feature",
      "geometry": {
        "type": "Point",
        "coordinates": [
          -98.5456116,
          31.2638905
        ]
      },
      "properties": {
        "name": "Guadalupe Mountains NP, Salt Flat, Texas",
        "arrival_day": 4,
        "arrival_time": "16:15"
      }
    },
    {
      "type": "Feature",
      "geometry": {
        "type": "Point",
        "coordinates": [
          -98.5456116,
          31.2638905
        ]
      },
      "properties": {
        "name": "Fort Davis NHS, Fort Davis, Texas",
        "arrival_day": 4,
        "arrival_time": "18:15"
      }
    },
    {
      "type": "Feature",
      "geometry": {
        "type": "Point",
        "coordinates": [
          -98.5456116,
          31.2638905
        ]
      },
      "properties": {
        "name": "Big Bend NP, Big Bend National Park, Texas",
        "arrival_day": 4,
        "arrival_time": "20:15"
      }
    },
    {
      "type": "Feature",
      "geometry": {
        "type": "Point",
        "coordinates": [
          -98.5456116,
          31.2638905
        ]
      },
      "properties": {
        "name": "Big Thicket N PRES, Kountze, Texas",
        "arrival_day": 5,
        "arrival_time": "22:15"
      }
    },
    {
      "type": "Feature",
      "geometry": {
        "type": "Point",
        "coordinates": [
          -98.5456116,
          31.2638905
        ]
      },
      "properties": {
        "name": "Blackwell School NHS, Marfa, Texas",
        "arrival_day": 5,
        "arrival_time": "00:15"
      }
    },
    {
      "type": "Feature",
      "geometry": {
        "type": "Point",
        "coordinates": [
          -100.98844,
          29.466018
        ]
      },
      "properties": {
        "name": "Amistad NRA, Del Rio, Texas",
        "arrival_day": 5,
        "arrival_time": "05:43"
      }
    },
    {
      "type": "Feature",
      "geometry": {
        "type": "Point",
        "coordinates": [
          -98.4788872,
          29.3603458
        ]
      },
      "properties": {
        "name": "San Antonio Missions NHP, San Antonio, Texas",
        "arrival_day": 6,
        "arrival_time": "10:27"
      }
    },
    {
      "type": "Feature",
      "geometry": {
        "type": "Point",
        "coordinates": [
          -97.4817606,
          26.0049965
        ]
      },
      "properties": {
        "name": "Palo Alto Battlefield NHP, Brownsville, Texas",
        "arrival_day": 7,
        "arrival_time": "16:48"
      }
    },
    {
      "type": "Feature",
      "geometry": {
        "type": "Point",
        "coordinates": [
          -97.2990078,
          27.4243667
        ]
      },
      "properties": {
        "name": "Padre Island NS, Corpus Christi, Texas",
        "arrival_day": 7,
        "arrival_time": "20:35"
      }
    },
    {
      "type": "Feature",
      "geometry": {
        "type": "Point",
        "coordinates": [
          -93.0024144,
          31.6655406
        ]
      },
      "properties": {
        "name": "Cane River Creole NHP, Natchez, Louisiana",
        "arrival_day": 8,
        "arrival_time": "05:41"
      }
    },
    {
      "type": "Feature",
      "geometry": {
        "type": "Point",
        "coordinates": [
          -91.3855572,
          31.5470831
        ]
      },
      "properties": {
        "name": "Natchez NHP, Natchez, Mississippi",
        "arrival_day": 8,
        "arrival_time": "09:25"
      }
    },
    {
      "type": "Feature",
      "geometry": {
        "type": "Point",
        "coordinates": [
          -90.0647995,
          29.9548546
        ]
      },
      "properties": {
        "name": "New Orleans Jazz NHP, New Orleans, Louisiana",
        "arrival_day": 9,
        "arrival_time": "13:52"
      }
    },
    {
      "type": "Feature",
      "geometry": {
        "type": "Point",
        "coordinates": [
          -88.7865166,
          30.3988806
        ]
      },
      "properties": {
        "name": "Gulf Islands NS, Ocean Springs, Mississippi",
        "arrival_day": 9,
        "arrival_time": "17:21"
      }
    },
    {
      "type": "Feature",
      "geometry": {
        "type": "Point",
        "coordinates": [
          -90.212145,
          32.340878
        ]
      },
      "properties": {
        "name": "Medgar and Myrlie Evers Home NM, Jackson, Mississippi",
        "arrival_day": 10,
        "arrival_time": "22:13"
      }
    },
    {
      "type": "Feature",
      "geometry": {
        "type": "Point",
        "coordinates": [
          -90.3697739,
          33.9711973
        ]
      },
      "properties": {
        "name": "Emmett Till and Mamie Till-Mobley NM, Sumner, Mississippi",
        "arrival_day": 10,
        "arrival_time": "02:16"
      }
    },
    {
      "type": "Feature",
      "geometry": {
        "type": "Point",
        "coordinates": [
          -92.2973826,
          34.7381346
        ]
      },
      "properties": {
        "name": "Little Rock Central High School NHS, Little Rock, Arkansas",
        "arrival_day": 11,
        "arrival_time": "06:29"
      }
    },
    {
      "type": "Feature",
      "geometry": {
        "type": "Point",
        "coordinates": [
          -92.4479108,
          35.2048883
        ]
      },
      "properties": {
        "name": "Arkansas Post N MEM, Gillett, Arkansas",
        "arrival_day": 11,
        "arrival_time": "09:05"
      }
    },
    {
      "type": "Feature",
      "geometry": {
        "type": "Point",
        "coordinates": [
          -92.4479108,
          35.2048883
        ]
      },
      "properties": {
        "name": "Buffalo NR, St. Joe, Arkansas",
        "arrival_day": 11,
        "arrival_time": "11:05"
      }
    },
    {
      "type": "Feature",
      "geometry": {
        "type": "Point",
        "coordinates": [
          -92.4479108,
          35.2048883
        ]
      },
      "properties": {
        "name": "Pea Ridge NMP, Garfield, Arkansas",
        "arrival_day": 11,
        "arrival_time": "13:05"
      }
    },
    {
      "type": "Feature",
      "geometry": {
        "type": "Point",
        "coordinates": [
          -90.4068,
          38.5831
        ]
      },
      "properties": {
        "name": "Kirkwood, MO",
        "arrival_day": 11,
        "arrival_time": "17:47"
      }
    }
  ]
}