{
  "type": "FeatureCollection",
  "features": [
    {
      "type": "Feature",
      "geometry": {
        "type": "LineString",
        "coordinates": [
          [
            -90.4068,
            38.5831
          ],
          [
            -87.5360877,
            38.6775722
          ],
          [
            -83.3782184,
            41.9159374
          ],
          [
            -90.4068,
            38.5831
          ]
        ]
      },
      "properties": {
        "trip_number": 3,
        "total_sites": 2,
        "total_distance_miles": 468.2,
        "total_days": 1
      }
    },
    {
      "type": "Feature",
      "geometry": {
        "type": "Point",
        "coordinates": [
          -90.4068,
          38.5831
        ]
      },
      "properties": {
        "name": "Kirkwood, MO",
        "arrival_day": 1,
        "arrival_time": "06:00"
      }
    },
    {
      "type": "Feature",
      "geometry": {
        "type": "Point",
        "coordinates": [
          -87.5360877,
          38.6775722
        ]
      },
      "properties": {
        "name": "George Rogers Clark NHP, Vincennes, Indiana",
        "arrival_day": 1,
        "arrival_time": "10:49"
      }
    },
    {
      "type": "Feature",
      "geometry": {
        "type": "Point",
        "coordinates": [
          -83.3782184,
          41.9159374
        ]
      },
      "properties": {
        "name": "River Raisin NBP, Monroe, Michigan",
        "arrival_day": 1,
        "arrival_time": "14:21"
      }
    },
    {
      "type": "Feature",
      "geometry": {
        "type": "Point",
        "coordinates": [
          -90.4068,
          38.5831
        ]
      },
      "properties": {
        "name": "Return to Kirkwood, MO",
        "arrival_day": 1,
        "arrival_time": "00:16"
      }
    }
  ]
}