{
  "type": "FeatureCollection",
  "features": [
    {
      "type": "Feature",
      "geometry": {
        "type": "LineString",
        "coordinates": [
          [
            -90.4068,
            38.5831
          ],
          [
            -77.7278831,
            40.9699889
          ],
          [
            -77.7278831,
            40.9699889
          ],
          [
            -77.7278831,
            40.9699889
          ],
          [
            -77.7278831,
            40.9699889
          ],
          [
            -73.9378168,
            41.7939221
          ],
          [
            -73.8615472,
            42.225766
          ],
          [
            -73.7040339,
            42.3698216
          ],
          [
            -69.5564193,
            44.0052552
          ],
          [
            -90.4068,
            38.5831
          ]
        ]
      },
      "properties": {
        "trip_number": 20,
        "total_sites": 8,
        "total_distance_miles": 1177.5,
        "total_days": 2
      }
    },
    {
      "type": "Feature",
      "geometry": {
        "type": "Point",
        "coordinates": [
          -90.4068,
          38.5831
        ]
      },
      "properties": {
        "name": "Kirkwood, MO",
        "arrival_day": 1,
        "arrival_time": "06:00"
      }
    },
    {
      "type": "Feature",
      "geometry": {
        "type": "Point",
        "coordinates": [
          -77.7278831,
          40.9699889
        ]
      },
      "properties": {
        "name": "The White House and President's Park, Washington DC, DC",
        "arrival_day": 1,
        "arrival_time": "08:37"
      }
    },
    {
      "type": "Feature",
      "geometry": {
        "type": "Point",
        "coordinates": [
          -77.7278831,
          40.9699889
        ]
      },
      "properties": {
        "name": "Johnstown Flood N MEM, South Fork, Pennsylvania",
        "arrival_day": 1,
        "arrival_time": "10:37"
      }
    },
    {
      "type": "Feature",
      "geometry": {
        "type": "Point",
        "coordinates": [
          -77.7278831,
          40.9699889
        ]
      },
      "properties": {
        "name": "Hopewell Furnace NHS, Elverson, Pennsylvania",
        "arrival_day": 2,
        "arrival_time": "12:37"
      }
    },
    {
      "type": "Feature",
      "geometry": {
        "type": "Point",
        "coordinates": [
          -77.7278831,
          40.9699889
        ]
      },
      "properties": {
        "name": "Fort Necessity NB, Farmington, Pennsylvania",
        "arrival_day": 2,
        "arrival_time": "14:37"
      }
    },
    {
      "type": "Feature",
      "geometry": {
        "type": "Point",
        "coordinates": [
          -73.9378168,
          41.7939221
        ]
      },
      "properties": {
        "name": "Vanderbilt Mansion NHS, Hyde Park, New York",
        "arrival_day": 2,
        "arrival_time": "09:44"
      }
    },
    {
      "type": "Feature",
      "geometry": {
        "type": "Point",
        "coordinates": [
          -73.8615472,
          42.225766
        ]
      },
      "properties": {
        "name": "Thomas Cole NHS, Catskill, New York",
        "arrival_day": 2,
        "arrival_time": "12:16"
      }
    },
    {
      "type": "Feature",
      "geometry": {
        "type": "Point",
        "coordinates": [
          -73.7040339,
          42.3698216
        ]
      },
      "properties": {
        "name": "Martin Van Buren NHS, Kinderhook, New York",
        "arrival_day": 2,
        "arrival_time": "14:29"
      }
    },
    {
      "type": "Feature",
      "geometry": {
        "type": "Point",
        "coordinates": [
          -69.5564193,
          44.0052552
        ]
      },
      "properties": {
        "name": "Frances Perkins NM, Newcastle, Maine 4553",
        "arrival_day": 2,
        "arrival_time": "09:16"
      }
    },
    {
      "type": "Feature",
      "geometry": {
        "type": "Point",
        "coordinates": [
          -90.4068,
          38.5831
        ]
      },
      "properties": {
        "name": "Return to Kirkwood, MO",
        "arrival_day": 2,
        "arrival_time": "08:01"
      }
    }
  ]
}