{
  "type": "FeatureCollection",
  "features": [
    {
      "type": "Feature",
      "geometry": {
        "type": "LineString",
        "coordinates": [
          [
            -90.4068,
            38.5831
          ],
          [
            -85.7346486,
            37.5503915
          ],
          [
            -78.2749771,
            39.0310273
          ],
          [
            -90.4068,
            38.5831
          ]
        ]
      },
      "properties": {
        "trip_number": 8,
        "total_sites": 2,
        "total_distance_miles": 681.1,
        "total_days": 1
      }
    },
    {
      "type": "Feature",
      "geometry": {
        "type": "Point",
        "coordinates": [
          -90.4068,
          38.5831
        ]
      },
      "properties": {
        "name": "Kirkwood, MO",
        "arrival_day": 1,
        "arrival_time": "06:00"
      }
    },
    {
      "type": "Feature",
      "geometry": {
        "type": "Point",
        "coordinates": [
          -85.7346486,
          37.5503915
        ]
      },
      "properties": {
        "name": "Abraham Lincoln Birthplace NHP, Hodgenville, Kentucky",
        "arrival_day": 1,
        "arrival_time": "12:47"
      }
    },
    {
      "type": "Feature",
      "geometry": {
        "type": "Point",
        "coordinates": [
          -78.2749771,
          39.0310273
        ]
      },
      "properties": {
        "name": "Cedar Creek and Belle Grove NHP, Middletown, 22645",
        "arrival_day": 1,
        "arrival_time": "09:02"
      }
    },
    {
      "type": "Feature",
      "geometry": {
        "type": "Point",
        "coordinates": [
          -90.4068,
          38.5831
        ]
      },
      "properties": {
        "name": "Return to Kirkwood, MO",
        "arrival_day": 1,
        "arrival_time": "22:54"
      }
    }
  ]
}