{
  "type": "FeatureCollection",
  "features": [
    {
      "type": "Feature",
      "geometry": {
        "type": "LineString",
        "coordinates": [
          [
            -90.4068,
            38.5831
          ],
          [
            -90.3697739,
            33.9711973
          ],
          [
            -90.0647995,
            29.9548546
          ],
          [
            -88.7865166,
            30.3988806
          ],
          [
            -90.4068,
            38.5831
          ]
        ]
      },
      "properties": {
        "trip_number": 13,
        "total_sites": 3,
        "total_distance_miles": 679.1,
        "total_days": 1
      }
    },
    {
      "type": "Feature",
      "geometry": {
        "type": "Point",
        "coordinates": [
          -90.4068,
          38.5831
        ]
      },
      "properties": {
        "name": "Kirkwood, MO",
        "arrival_day": 1,
        "arrival_time": "06:00"
      }
    },
    {
      "type": "Feature",
      "geometry": {
        "type": "Point",
        "coordinates": [
          -90.3697739,
          33.9711973
        ]
      },
      "properties": {
        "name": "Emmett Till and Mamie Till-Mobley NM, Sumner, Mississippi",
        "arrival_day": 1,
        "arrival_time": "13:47"
      }
    },
    {
      "type": "Feature",
      "geometry": {
        "type": "Point",
        "coordinates": [
          -90.0647995,
          29.9548546
        ]
      },
      "properties": {
        "name": "New Orleans Jazz NHP, New Orleans, Louisiana",
        "arrival_day": 1,
        "arrival_time": "09:52"
      }
    },
    {
      "type": "Feature",
      "geometry": {
        "type": "Point",
        "coordinates": [
          -88.7865166,
          30.3988806
        ]
      },
      "properties": {
        "name": "Gulf Islands NS, Ocean Springs, Mississippi",
        "arrival_day": 2,
        "arrival_time": "13:21"
      }
    },
    {
      "type": "Feature",
      "geometry": {
        "type": "Point",
        "coordinates": [
          -90.4068,
          38.5831
        ]
      },
      "properties": {
        "name": "Return to Kirkwood, MO",
        "arrival_day": 2,
        "arrival_time": "01:46"
      }
    }
  ]
}