{
  "type": "FeatureCollection",
  "features": [
    {
      "type": "Feature",
      "geometry": {
        "type": "LineString",
        "coordinates": [
          [
            -90.4068,
            38.5831
          ],
          [
            -86.434846,
            35.881861
          ],
          [
            -84.324584,
            33.9872732
          ],
          [
            -82.0256516,
            34.1678411
          ],
          [
            -90.4068,
            38.5831
          ]
        ]
      },
      "properties": {
        "trip_number": 5,
        "total_sites": 3,
        "total_distance_miles": 596.8,
        "total_days": 1
      }
    },
    {
      "type": "Feature",
      "geometry": {
        "type": "Point",
        "coordinates": [
          -90.4068,
          38.5831
        ]
      },
      "properties": {
        "name": "Kirkwood, MO",
        "arrival_day": 1,
        "arrival_time": "06:00"
      }
    },
    {
      "type": "Feature",
      "geometry": {
        "type": "Point",
        "coordinates": [
          -86.434846,
          35.881861
        ]
      },
      "properties": {
        "name": "Stones River NB, Murfreesboro, Tennessee",
        "arrival_day": 1,
        "arrival_time": "13:13"
      }
    },
    {
      "type": "Feature",
      "geometry": {
        "type": "Point",
        "coordinates": [
          -84.324584,
          33.9872732
        ]
      },
      "properties": {
        "name": "Chattahoochee River NRA, Sandy Springs, Georgia",
        "arrival_day": 1,
        "arrival_time": "09:26"
      }
    },
    {
      "type": "Feature",
      "geometry": {
        "type": "Point",
        "coordinates": [
          -82.0256516,
          34.1678411
        ]
      },
      "properties": {
        "name": "Ninety Six NHS, Ninety Six, South Carolina",
        "arrival_day": 1,
        "arrival_time": "13:50"
      }
    },
    {
      "type": "Feature",
      "geometry": {
        "type": "Point",
        "coordinates": [
          -90.4068,
          38.5831
        ]
      },
      "properties": {
        "name": "Return to Kirkwood, MO",
        "arrival_day": 1,
        "arrival_time": "01:57"
      }
    }
  ]
}