{
  "type": "FeatureCollection",
  "features": [
    {
      "type": "Feature",
      "geometry": {
        "type": "LineString",
        "coordinates": [
          [
            -90.4068,
            38.5831
          ],
          [
            -79.8474318,
            36.1315112
          ],
          [
            -79.4250803,
            35.7032968
          ],
          [
            -90.4068,
            38.5831
          ]
        ]
      },
      "properties": {
        "trip_number": 15,
        "total_sites": 2,
        "total_distance_miles": 641.7,
        "total_days": 1
      }
    },
    {
      "type": "Feature",
      "geometry": {
        "type": "Point",
        "coordinates": [
          -90.4068,
          38.5831
        ]
      },
      "properties": {
        "name": "Kirkwood, MO",
        "arrival_day": 1,
        "arrival_time": "06:00"
      }
    },
    {
      "type": "Feature",
      "geometry": {
        "type": "Point",
        "coordinates": [
          -79.8474318,
          36.1315112
        ]
      },
      "properties": {
        "name": "Guilford Courthouse NMP, Greensboro, North Carolina",
        "arrival_day": 1,
        "arrival_time": "09:22"
      }
    },
    {
      "type": "Feature",
      "geometry": {
        "type": "Point",
        "coordinates": [
          -79.4250803,
          35.7032968
        ]
      },
      "properties": {
        "name": "Bluestone NSR, Meadow Bridge, 25976",
        "arrival_day": 1,
        "arrival_time": "12:03"
      }
    },
    {
      "type": "Feature",
      "geometry": {
        "type": "Point",
        "coordinates": [
          -90.4068,
          38.5831
        ]
      },
      "properties": {
        "name": "Return to Kirkwood, MO",
        "arrival_day": 1,
        "arrival_time": "01:37"
      }
    }
  ]
}