{
  "type": "FeatureCollection",
  "features": [
    {
      "type": "Feature",
      "geometry": {
        "type": "LineString",
        "coordinates": [
          [
            -90.4068,
            38.5831
          ],
          [
            -94.4310733,
            35.388505
          ],
          [
            -109.4841684,
            32.3265073
          ],
          [
            -110.7362598,
            32.1802177
          ],
          [
            -117.2451694,
            32.6922209
          ],
          [
            -90.4068,
            38.5831
          ]
        ]
      },
      "properties": {
        "trip_number": 16,
        "total_sites": 4,
        "total_distance_miles": 1656.4,
        "total_days": 3
      }
    },
    {
      "type": "Feature",
      "geometry": {
        "type": "Point",
        "coordinates": [
          -90.4068,
          38.5831
        ]
      },
      "properties": {
        "name": "Kirkwood, MO",
        "arrival_day": 1,
        "arrival_time": "06:00"
      }
    },
    {
      "type": "Feature",
      "geometry": {
        "type": "Point",
        "coordinates": [
          -94.4310733,
          35.388505
        ]
      },
      "properties": {
        "name": "Fort Smith NHS, Fort Smith, Arkansas",
        "arrival_day": 1,
        "arrival_time": "13:41"
      }
    },
    {
      "type": "Feature",
      "geometry": {
        "type": "Point",
        "coordinates": [
          -109.4841684,
          32.3265073
        ]
      },
      "properties": {
        "name": "Fort Bowie NHS, Bowie, Arizona",
        "arrival_day": 2,
        "arrival_time": "08:39"
      }
    },
    {
      "type": "Feature",
      "geometry": {
        "type": "Point",
        "coordinates": [
          -110.7362598,
          32.1802177
        ]
      },
      "properties": {
        "name": "Saguaro NP, Tucson, Arizona",
        "arrival_day": 2,
        "arrival_time": "11:59"
      }
    },
    {
      "type": "Feature",
      "geometry": {
        "type": "Point",
        "coordinates": [
          -117.2451694,
          32.6922209
        ]
      },
      "properties": {
        "name": "Cabrillo NM, San Diego, California",
        "arrival_day": 3,
        "arrival_time": "08:58"
      }
    },
    {
      "type": "Feature",
      "geometry": {
        "type": "Point",
        "coordinates": [
          -90.4068,
          38.5831
        ]
      },
      "properties": {
        "name": "Return to Kirkwood, MO",
        "arrival_day": 3,
        "arrival_time": "15:14"
      }
    }
  ]
}