{
  "type": "FeatureCollection",
  "features": [
    {
      "type": "Feature",
      "geometry": {
        "type": "LineString",
        "coordinates": [
          [
            -90.4068,
            38.5831
          ],
          [
            -94.4233448,
            39.0937292
          ],
          [
            -119.6461435,
            44.5529761
          ],
          [
            -156.6682423,
            58.6826737
          ],
          [
            -165.4101566,
            64.4980814
          ],
          [
            -162.5930442,
            66.8969703
          ],
          [
            -90.4068,
            38.5831
          ]
        ]
      },
      "properties": {
        "trip_number": 17,
        "total_sites": 5,
        "total_distance_miles": 4072.3,
        "total_days": 5
      }
    },
    {
      "type": "Feature",
      "geometry": {
        "type": "Point",
        "coordinates": [
          -90.4068,
          38.5831
        ]
      },
      "properties": {
        "name": "Kirkwood, MO",
        "arrival_day": 1,
        "arrival_time": "06:00"
      }
    },
    {
      "type": "Feature",
      "geometry": {
        "type": "Point",
        "coordinates": [
          -94.4233448,
          39.0937292
        ]
      },
      "properties": {
        "name": "Harry S Truman NHS, Independence, Missouri",
        "arrival_day": 1,
        "arrival_time": "11:58"
      }
    },
    {
      "type": "Feature",
      "geometry": {
        "type": "Point",
        "coordinates": [
          -119.6461435,
          44.5529761
        ]
      },
      "properties": {
        "name": "John Day Fossil Beds NM, Kimberly, Oregon",
        "arrival_day": 2,
        "arrival_time": "10:31"
      }
    },
    {
      "type": "Feature",
      "geometry": {
        "type": "Point",
        "coordinates": [
          -156.6682423,
          58.6826737
        ]
      },
      "properties": {
        "name": "Aniakchak NM and PRES, King Salmon, Alaska",
        "arrival_day": 4,
        "arrival_time": "13:55"
      }
    },
    {
      "type": "Feature",
      "geometry": {
        "type": "Point",
        "coordinates": [
          -165.4101566,
          64.4980814
        ]
      },
      "properties": {
        "name": "Bering Land Bridge N PRES, Nome, Alaska",
        "arrival_day": 5,
        "arrival_time": "08:52"
      }
    },
    {
      "type": "Feature",
      "geometry": {
        "type": "Point",
        "coordinates": [
          -162.5930442,
          66.8969703
        ]
      },
      "properties": {
        "name": "Kobuk Valley NP, Kotzebue, Alaska",
        "arrival_day": 5,
        "arrival_time": "14:12"
      }
    },
    {
      "type": "Feature",
      "geometry": {
        "type": "Point",
        "coordinates": [
          -90.4068,
          38.5831
        ]
      },
      "properties": {
        "name": "Return to Kirkwood, MO",
        "arrival_day": 5,
        "arrival_time": "04:39"
      }
    }
  ]
}