{
  "type": "FeatureCollection",
  "features": [
    {
      "type": "Feature",
      "geometry": {
        "type": "LineString",
        "coordinates": [
          [
            -90.4068,
            38.5831
          ],
          [
            -87.8625811,
            36.4831363
          ],
          [
            -83.6018436,
            32.837227
          ],
          [
            -90.4068,
            38.5831
          ]
        ]
      },
      "properties": {
        "trip_number": 14,
        "total_sites": 2,
        "total_distance_miles": 550.6,
        "total_days": 1
      }
    },
    {
      "type": "Feature",
      "geometry": {
        "type": "Point",
        "coordinates": [
          -90.4068,
          38.5831
        ]
      },
      "properties": {
        "name": "Kirkwood, MO",
        "arrival_day": 1,
        "arrival_time": "06:00"
      }
    },
    {
      "type": "Feature",
      "geometry": {
        "type": "Point",
        "coordinates": [
          -87.8625811,
          36.4831363
        ]
      },
      "properties": {
        "name": "Fort Donelson NB, Dover, Tennessee",
        "arrival_day": 1,
        "arrival_time": "11:39"
      }
    },
    {
      "type": "Feature",
      "geometry": {
        "type": "Point",
        "coordinates": [
          -83.6018436,
          32.837227
        ]
      },
      "properties": {
        "name": "Ocmulgee NHP, Macon, Georgia",
        "arrival_day": 1,
        "arrival_time": "09:40"
      }
    },
    {
      "type": "Feature",
      "geometry": {
        "type": "Point",
        "coordinates": [
          -90.4068,
          38.5831
        ]
      },
      "properties": {
        "name": "Return to Kirkwood, MO",
        "arrival_day": 1,
        "arrival_time": "21:40"
      }
    }
  ]
}