{
  "type": "FeatureCollection",
  "features": [
    {
      "type": "Feature",
      "geometry": {
        "type": "LineString",
        "coordinates": [
          [
            -90.4068,
            38.5831
          ],
          [
            -91.3454687,
            41.6707487
          ],
          [
            -94.4233448,
            39.0937292
          ],
          [
            -95.676382,
            39.037959
          ],
          [
            -94.7065998,
            37.8436759
          ],
          [
            -92.7447,
            36.0097
          ],
          [
            -92.4479108,
            35.2048883
          ],
          [
            -92.4479108,
            35.2048883
          ],
          [
            -92.2973826,
            34.7381346
          ],
          [
            -90.4068,
            38.5831
          ]
        ]
      },
      "properties": {
        "trip_number": 2,
        "total_sites": 8,
        "total_distance_miles": 1168.6,
        "total_days": 3
      }
    },
    {
      "type": "Feature",
      "geometry": {
        "type": "Point",
        "coordinates": [
          -90.4068,
          38.5831
        ]
      },
      "properties": {
        "name": "Kirkwood, MO",
        "arrival_day": 1,
        "arrival_time": "06:00"
      }
    },
    {
      "type": "Feature",
      "geometry": {
        "type": "Point",
        "coordinates": [
          -91.3454687,
          41.6707487
        ]
      },
      "properties": {
        "name": "Herbert Hoover NHS, West Branch, Iowa",
        "arrival_day": 1,
        "arrival_time": "11:58"
      }
    },
    {
      "type": "Feature",
      "geometry": {
        "type": "Point",
        "coordinates": [
          -94.4233448,
          39.0937292
        ]
      },
      "properties": {
        "name": "Harry S Truman NHS, Independence, Missouri",
        "arrival_day": 1,
        "arrival_time": "18:20"
      }
    },
    {
      "type": "Feature",
      "geometry": {
        "type": "Point",
        "coordinates": [
          -95.676382,
          39.037959
        ]
      },
      "properties": {
        "name": "Brown v Board of Education NHS, Unknown, Unknown",
        "arrival_day": 2,
        "arrival_time": "07:33"
      }
    },
    {
      "type": "Feature",
      "geometry": {
        "type": "Point",
        "coordinates": [
          -94.7065998,
          37.8436759
        ]
      },
      "properties": {
        "name": "Fort Scott NHS, Fort Scott, Kansas",
        "arrival_day": 2,
        "arrival_time": "11:19"
      }
    },
    {
      "type": "Feature",
      "geometry": {
        "type": "Point",
        "coordinates": [
          -92.7447,
          36.0097
        ]
      },
      "properties": {
        "name": "Buffalo NR, St. Joe, Arkansas",
        "arrival_day": 2,
        "arrival_time": "16:20"
      }
    },
    {
      "type": "Feature",
      "geometry": {
        "type": "Point",
        "coordinates": [
          -92.4479108,
          35.2048883
        ]
      },
      "properties": {
        "name": "Arkansas Post N MEM, Gillett, Arkansas",
        "arrival_day": 2,
        "arrival_time": "19:23"
      }
    },
    {
      "type": "Feature",
      "geometry": {
        "type": "Point",
        "coordinates": [
          -92.4479108,
          35.2048883
        ]
      },
      "properties": {
        "name": "Pea Ridge NMP, Garfield, Arkansas",
        "arrival_day": 3,
        "arrival_time": "07:23"
      }
    },
    {
      "type": "Feature",
      "geometry": {
        "type": "Point",
        "coordinates": [
          -92.2973826,
          34.7381346
        ]
      },
      "properties": {
        "name": "Little Rock Central High School NHS, Little Rock, Arkansas",
        "arrival_day": 3,
        "arrival_time": "09:59"
      }
    },
    {
      "type": "Feature",
      "geometry": {
        "type": "Point",
        "coordinates": [
          -90.4068,
          38.5831
        ]
      },
      "properties": {
        "name": "Kirkwood, MO",
        "arrival_day": 1,
        "arrival_time": "06:00"
      }
    }
  ]
}