{
  "type": "FeatureCollection",
  "features": [
    {
      "type": "Feature",
      "geometry": {
        "type": "LineString",
        "coordinates": [
          [
            -90.4068,
            38.5831
          ],
          [
            -86.434846,
            35.881861
          ],
          [
            -86.2820081,
            35.7730076
          ],
          [
            -86.2820081,
            35.7730076
          ],
          [
            -86.2820081,
            35.7730076
          ],
          [
            -84.324584,
            33.9872732
          ],
          [
            -84.3734662,
            33.7563822
          ],
          [
            -82.0256516,
            34.1678411
          ],
          [
            -80.6700904,
            32.432537
          ],
          [
            -79.8278953,
            32.8467455
          ],
          [
            -78.1096233,
            34.4578949
          ],
          [
            -76.5735718,
            34.6976882
          ],
          [
            -75.6677117,
            36.02064
          ],
          [
            -75.3512123,
            37.9185315
          ],
          [
            -76.1502973,
            38.5000678
          ],
          [
            -75.56338,
            39.6598681
          ],
          [
            -75.1432756,
            39.9356801
          ],
          [
            -75.1499193,
            39.9514534
          ],
          [
            -75.1499193,
            39.9514534
          ],
          [
            -75.1498587,
            39.9618313
          ],
          [
            -74.0476674,
            40.6898508
          ],
          [
            -74.0395482,
            40.6991311
          ],
          [
            -74.0172629,
            40.702856
          ],
          [
            -74.0100604,
            40.7075171
          ],
          [
            -74.0044657,
            40.7145252
          ],
          [
            -74.0020726,
            40.7339151
          ],
          [
            -73.9890373,
            40.7386402
          ],
          [
            -73.9900266,
            40.7187837
          ],
          [
            -73.8207508,
            40.598113
          ],
          [
            -73.4960288,
            40.8859117
          ],
          [
            -73.8253367,
            40.8935185
          ],
          [
            -73.9473012,
            40.8213589
          ],
          [
            -74.1809754,
            40.9148026
          ],
          [
            -74.2333435,
            40.7851176
          ],
          [
            -74.4671071,
            40.7973298
          ],
          [
            -75.0170041,
            41.0706397
          ],
          [
            -76.5876824,
            39.4163298
          ],
          [
            -77.397741,
            39.377972
          ],
          [
            -77.7411521,
            39.4591562
          ],
          [
            -78.9520453,
            40.0985388
          ],
          [
            -81.3748608,
            40.7975362
          ],
          [
            -84.2119654,
            39.7553856
          ],
          [
            -90.4068,
            38.5831
          ]
        ]
      },
      "properties": {
        "trip_number": 20,
        "total_sites": 42,
        "total_distance_miles": 2301.3,
        "total_days": 10.77
      }
    },
    {
      "type": "Feature",
      "geometry": {
        "type": "Point",
        "coordinates": [
          -90.4068,
          38.5831
        ]
      },
      "properties": {
        "name": "Kirkwood, MO",
        "arrival_day": 1,
        "arrival_time": "06:00"
      }
    },
    {
      "type": "Feature",
      "geometry": {
        "type": "Point",
        "coordinates": [
          -86.434846,
          35.881861
        ]
      },
      "properties": {
        "name": "Stones River NB, Murfreesboro, Tennessee",
        "arrival_day": 1,
        "arrival_time": "13:13"
      }
    },
    {
      "type": "Feature",
      "geometry": {
        "type": "Point",
        "coordinates": [
          -86.2820081,
          35.7730076
        ]
      },
      "properties": {
        "name": "Obed WSR, Wartburg, Tennessee",
        "arrival_day": 1,
        "arrival_time": "15:25"
      }
    },
    {
      "type": "Feature",
      "geometry": {
        "type": "Point",
        "coordinates": [
          -86.2820081,
          35.7730076
        ]
      },
      "properties": {
        "name": "Big South Fork NRRA, Oneida, Tennessee",
        "arrival_day": 1,
        "arrival_time": "17:25"
      }
    },
    {
      "type": "Feature",
      "geometry": {
        "type": "Point",
        "coordinates": [
          -86.2820081,
          35.7730076
        ]
      },
      "properties": {
        "name": "Great Smoky Mountains NP, Gatlinburg, Tennessee",
        "arrival_day": 2,
        "arrival_time": "19:25"
      }
    },
    {
      "type": "Feature",
      "geometry": {
        "type": "Point",
        "coordinates": [
          -84.324584,
          33.9872732
        ]
      },
      "properties": {
        "name": "Chattahoochee River NRA, Sandy Springs, Georgia",
        "arrival_day": 2,
        "arrival_time": "00:26"
      }
    },
    {
      "type": "Feature",
      "geometry": {
        "type": "Point",
        "coordinates": [
          -84.3734662,
          33.7563822
        ]
      },
      "properties": {
        "name": "Martin Luther King, Jr NHP, Atlanta, Georgia",
        "arrival_day": 2,
        "arrival_time": "02:43"
      }
    },
    {
      "type": "Feature",
      "geometry": {
        "type": "Point",
        "coordinates": [
          -82.0256516,
          34.1678411
        ]
      },
      "properties": {
        "name": "Ninety Six NHS, Ninety Six, South Carolina",
        "arrival_day": 3,
        "arrival_time": "07:13"
      }
    },
    {
      "type": "Feature",
      "geometry": {
        "type": "Point",
        "coordinates": [
          -80.6700904,
          32.432537
        ]
      },
      "properties": {
        "name": "Reconstruction Era NHP, Beaufort, South Carolina",
        "arrival_day": 3,
        "arrival_time": "11:49"
      }
    },
    {
      "type": "Feature",
      "geometry": {
        "type": "Point",
        "coordinates": [
          -79.8278953,
          32.8467455
        ]
      },
      "properties": {
        "name": "Charles Pinckney NHS, Mount Pleasant, South Carolina",
        "arrival_day": 3,
        "arrival_time": "14:50"
      }
    },
    {
      "type": "Feature",
      "geometry": {
        "type": "Point",
        "coordinates": [
          -78.1096233,
          34.4578949
        ]
      },
      "properties": {
        "name": "Moores Creek NB, Currie, North Carolina",
        "arrival_day": 4,
        "arrival_time": "19:32"
      }
    },
    {
      "type": "Feature",
      "geometry": {
        "type": "Point",
        "coordinates": [
          -76.5735718,
          34.6976882
        ]
      },
      "properties": {
        "name": "Cape Lookout NS, Harkers Island, North Carolina",
        "arrival_day": 4,
        "arrival_time": "23:09"
      }
    },
    {
      "type": "Feature",
      "geometry": {
        "type": "Point",
        "coordinates": [
          -75.6677117,
          36.02064
        ]
      },
      "properties": {
        "name": "Wright Brothers N MEM, Kill Devil Hills, North Carolina",
        "arrival_day": 4,
        "arrival_time": "03:03"
      }
    },
    {
      "type": "Feature",
      "geometry": {
        "type": "Point",
        "coordinates": [
          -75.3512123,
          37.9185315
        ]
      },
      "properties": {
        "name": "Assateague Island NS, Chincoteague, 23336",
        "arrival_day": 5,
        "arrival_time": "07:27"
      }
    },
    {
      "type": "Feature",
      "geometry": {
        "type": "Point",
        "coordinates": [
          -76.1502973,
          38.5000678
        ]
      },
      "properties": {
        "name": "Harriet Tubman Underground Railroad NHP, Church Creek, Maryland",
        "arrival_day": 5,
        "arrival_time": "10:31"
      }
    },
    {
      "type": "Feature",
      "geometry": {
        "type": "Point",
        "coordinates": [
          -75.56338,
          39.6598681
        ]
      },
      "properties": {
        "name": "First State National Historical Park, New Castle, Delaware",
        "arrival_day": 5,
        "arrival_time": "14:04"
      }
    },
    {
      "type": "Feature",
      "geometry": {
        "type": "Point",
        "coordinates": [
          -75.1432756,
          39.9356801
        ]
      },
      "properties": {
        "name": "Gloria Dei Church NHS, Philadelphia, Pennsylvania",
        "arrival_day": 5,
        "arrival_time": "16:36"
      }
    },
    {
      "type": "Feature",
      "geometry": {
        "type": "Point",
        "coordinates": [
          -75.1499193,
          39.9514534
        ]
      },
      "properties": {
        "name": "Thaddeus Kosciuszko N MEM, Philadelphia, Pennsylvania",
        "arrival_day": 6,
        "arrival_time": "18:37"
      }
    },
    {
      "type": "Feature",
      "geometry": {
        "type": "Point",
        "coordinates": [
          -75.1499193,
          39.9514534
        ]
      },
      "properties": {
        "name": "Independence NHP, Philadelphia, Pennsylvania",
        "arrival_day": 6,
        "arrival_time": "20:37"
      }
    },
    {
      "type": "Feature",
      "geometry": {
        "type": "Point",
        "coordinates": [
          -75.1498587,
          39.9618313
        ]
      },
      "properties": {
        "name": "Edgar Allan Poe NHS, Philadelphia, Pennsylvania",
        "arrival_day": 6,
        "arrival_time": "22:37"
      }
    },
    {
      "type": "Feature",
      "geometry": {
        "type": "Point",
        "coordinates": [
          -74.0476674,
          40.6898508
        ]
      },
      "properties": {
        "name": "Statue of Liberty NM, New York, New York",
        "arrival_day": 6,
        "arrival_time": "02:00"
      }
    },
    {
      "type": "Feature",
      "geometry": {
        "type": "Point",
        "coordinates": [
          -74.0395482,
          40.6991311
        ]
      },
      "properties": {
        "name": "Ellis Island, New York, New York",
        "arrival_day": 6,
        "arrival_time": "04:00"
      }
    },
    {
      "type": "Feature",
      "geometry": {
        "type": "Point",
        "coordinates": [
          -74.0172629,
          40.702856
        ]
      },
      "properties": {
        "name": "Castle Clinton NM, New York, New York",
        "arrival_day": 7,
        "arrival_time": "06:01"
      }
    },
    {
      "type": "Feature",
      "geometry": {
        "type": "Point",
        "coordinates": [
          -74.0100604,
          40.7075171
        ]
      },
      "properties": {
        "name": "Federal Hall N MEM, New York, New York",
        "arrival_day": 7,
        "arrival_time": "08:01"
      }
    },
    {
      "type": "Feature",
      "geometry": {
        "type": "Point",
        "coordinates": [
          -74.0044657,
          40.7145252
        ]
      },
      "properties": {
        "name": "African Burial Ground NM, New York, New York",
        "arrival_day": 7,
        "arrival_time": "10:01"
      }
    },
    {
      "type": "Feature",
      "geometry": {
        "type": "Point",
        "coordinates": [
          -74.0020726,
          40.7339151
        ]
      },
      "properties": {
        "name": "Stonewall NM, New York, New York",
        "arrival_day": 7,
        "arrival_time": "12:02"
      }
    },
    {
      "type": "Feature",
      "geometry": {
        "type": "Point",
        "coordinates": [
          -73.9890373,
          40.7386402
        ]
      },
      "properties": {
        "name": "Theodore Roosevelt Birthplace NHS, New York, New York",
        "arrival_day": 7,
        "arrival_time": "14:02"
      }
    },
    {
      "type": "Feature",
      "geometry": {
        "type": "Point",
        "coordinates": [
          -73.9900266,
          40.7187837
        ]
      },
      "properties": {
        "name": "Lower East Side Tenement Museum NHS, New York, New York",
        "arrival_day": 7,
        "arrival_time": "16:03"
      }
    },
    {
      "type": "Feature",
      "geometry": {
        "type": "Point",
        "coordinates": [
          -73.8207508,
          40.598113
        ]
      },
      "properties": {
        "name": "Gateway NRA, Broad Channel, New York",
        "arrival_day": 8,
        "arrival_time": "18:16"
      }
    },
    {
      "type": "Feature",
      "geometry": {
        "type": "Point",
        "coordinates": [
          -73.4960288,
          40.8859117
        ]
      },
      "properties": {
        "name": "Sagamore Hill NHS, Oyster Bay, New York",
        "arrival_day": 8,
        "arrival_time": "20:44"
      }
    },
    {
      "type": "Feature",
      "geometry": {
        "type": "Point",
        "coordinates": [
          -73.8253367,
          40.8935185
        ]
      },
      "properties": {
        "name": "Saint Paul's Church NHS, Mount Vernon, New York",
        "arrival_day": 8,
        "arrival_time": "23:02"
      }
    },
    {
      "type": "Feature",
      "geometry": {
        "type": "Point",
        "coordinates": [
          -73.9473012,
          40.8213589
        ]
      },
      "properties": {
        "name": "Hamilton Grange N MEM, New York, New York",
        "arrival_day": 8,
        "arrival_time": "01:10"
      }
    },
    {
      "type": "Feature",
      "geometry": {
        "type": "Point",
        "coordinates": [
          -74.1809754,
          40.9148026
        ]
      },
      "properties": {
        "name": "Paterson Great Falls NHP, Paterson, New Jersey",
        "arrival_day": 8,
        "arrival_time": "03:25"
      }
    },
    {
      "type": "Feature",
      "geometry": {
        "type": "Point",
        "coordinates": [
          -74.2333435,
          40.7851176
        ]
      },
      "properties": {
        "name": "Thomas Edison NHP, West Orange, New Jersey",
        "arrival_day": 8,
        "arrival_time": "05:35"
      }
    },
    {
      "type": "Feature",
      "geometry": {
        "type": "Point",
        "coordinates": [
          -74.4671071,
          40.7973298
        ]
      },
      "properties": {
        "name": "Morristown NHP, Morristown, New Jersey",
        "arrival_day": 9,
        "arrival_time": "07:48"
      }
    },
    {
      "type": "Feature",
      "geometry": {
        "type": "Point",
        "coordinates": [
          -75.0170041,
          41.0706397
        ]
      },
      "properties": {
        "name": "Delaware Water Gap NRA, Bushkill, Pennsylvania",
        "arrival_day": 9,
        "arrival_time": "10:25"
      }
    },
    {
      "type": "Feature",
      "geometry": {
        "type": "Point",
        "coordinates": [
          -76.5876824,
          39.4163298
        ]
      },
      "properties": {
        "name": "Hampton NHS, Towson, Maryland",
        "arrival_day": 9,
        "arrival_time": "14:58"
      }
    },
    {
      "type": "Feature",
      "geometry": {
        "type": "Point",
        "coordinates": [
          -77.397741,
          39.377972
        ]
      },
      "properties": {
        "name": "Monocacy NB, Frederick, Maryland",
        "arrival_day": 9,
        "arrival_time": "17:45"
      }
    },
    {
      "type": "Feature",
      "geometry": {
        "type": "Point",
        "coordinates": [
          -77.7411521,
          39.4591562
        ]
      },
      "properties": {
        "name": "Antietam NB, Sharpsburg, Maryland",
        "arrival_day": 10,
        "arrival_time": "20:05"
      }
    },
    {
      "type": "Feature",
      "geometry": {
        "type": "Point",
        "coordinates": [
          -78.9520453,
          40.0985388
        ]
      },
      "properties": {
        "name": "Flight 93 N MEM, Stoystown, Pennsylvania",
        "arrival_day": 10,
        "arrival_time": "23:30"
      }
    },
    {
      "type": "Feature",
      "geometry": {
        "type": "Point",
        "coordinates": [
          -81.3748608,
          40.7975362
        ]
      },
      "properties": {
        "name": "First Ladies NHS, Canton, Ohio",
        "arrival_day": 10,
        "arrival_time": "03:58"
      }
    },
    {
      "type": "Feature",
      "geometry": {
        "type": "Point",
        "coordinates": [
          -84.2119654,
          39.7553856
        ]
      },
      "properties": {
        "name": "Dayton Aviation Heritage NHP, Dayton, Ohio",
        "arrival_day": 11,
        "arrival_time": "08:59"
      }
    },
    {
      "type": "Feature",
      "geometry": {
        "type": "Point",
        "coordinates": [
          -90.4068,
          38.5831
        ]
      },
      "properties": {
        "name": "Kirkwood, MO",
        "arrival_day": 11,
        "arrival_time": "15:11"
      }
    }
  ]
}