{
  "type": "FeatureCollection",
  "features": [
    {
      "type": "Feature",
      "geometry": {
        "type": "LineString",
        "coordinates": [
          [
            -90.4068,
            38.5831
          ],
          [
            -92.4479108,
            35.2048883
          ],
          [
            -92.4479108,
            35.2048883
          ],
          [
            -92.4479108,
            35.2048883
          ],
          [
            -92.2973826,
            34.7381346
          ],
          [
            -94.1798525,
            34.2939248
          ],
          [
            -94.4310733,
            35.388505
          ],
          [
            -96.9789694,
            34.4937367
          ],
          [
            -98.5456116,
            31.2638905
          ],
          [
            -98.5456116,
            31.2638905
          ],
          [
            -98.5456116,
            31.2638905
          ],
          [
            -98.5456116,
            31.2638905
          ],
          [
            -98.5456116,
            31.2638905
          ],
          [
            -98.5456116,
            31.2638905
          ],
          [
            -98.5456116,
            31.2638905
          ],
          [
            -100.98844,
            29.466018
          ],
          [
            -98.4788872,
            29.3603458
          ],
          [
            -97.4817606,
            26.0049965
          ],
          [
            -97.2990078,
            27.4243667
          ],
          [
            -93.0024144,
            31.6655406
          ],
          [
            -91.3855572,
            31.5470831
          ],
          [
            -90.212145,
            32.340878
          ],
          [
            -90.0647995,
            29.9548546
          ],
          [
            -88.7865166,
            30.3988806
          ],
          [
            -81.2883856,
            25.8988938
          ],
          [
            -80.3347359,
            25.4643962
          ],
          [
            -80.8243973,
            28.9272225
          ],
          [
            -81.2780349,
            29.8611867
          ],
          [
            -81.3143815,
            29.8993771
          ],
          [
            -81.4959844,
            30.3848466
          ],
          [
            -81.4959844,
            30.3848466
          ],
          [
            -81.3884377,
            31.1600988
          ],
          [
            -80.6700904,
            32.432537
          ],
          [
            -79.8278953,
            32.8467455
          ],
          [
            -82.0256516,
            34.1678411
          ],
          [
            -83.6018436,
            32.837227
          ],
          [
            -84.3925601,
            32.0365845
          ],
          [
            -85.7084448,
            32.4288729
          ],
          [
            -85.6849644,
            32.4579178
          ],
          [
            -86.8144977,
            33.5153921
          ],
          [
            -90.3697739,
            33.9711973
          ],
          [
            -90.4068,
            38.5831
          ]
        ]
      },
      "properties": {
        "trip_number": 5,
        "total_sites": 41,
        "total_distance_miles": 4335.7,
        "total_days": 13.65
      }
    },
    {
      "type": "Feature",
      "geometry": {
        "type": "Point",
        "coordinates": [
          -90.4068,
          38.5831
        ]
      },
      "properties": {
        "name": "Kirkwood, MO",
        "arrival_day": 1,
        "arrival_time": "06:00"
      }
    },
    {
      "type": "Feature",
      "geometry": {
        "type": "Point",
        "coordinates": [
          -92.4479108,
          35.2048883
        ]
      },
      "properties": {
        "name": "Pea Ridge NMP, Garfield, Arkansas",
        "arrival_day": 1,
        "arrival_time": "12:42"
      }
    },
    {
      "type": "Feature",
      "geometry": {
        "type": "Point",
        "coordinates": [
          -92.4479108,
          35.2048883
        ]
      },
      "properties": {
        "name": "Buffalo NR, St. Joe, Arkansas",
        "arrival_day": 1,
        "arrival_time": "14:42"
      }
    },
    {
      "type": "Feature",
      "geometry": {
        "type": "Point",
        "coordinates": [
          -92.4479108,
          35.2048883
        ]
      },
      "properties": {
        "name": "Arkansas Post N MEM, Gillett, Arkansas",
        "arrival_day": 1,
        "arrival_time": "16:42"
      }
    },
    {
      "type": "Feature",
      "geometry": {
        "type": "Point",
        "coordinates": [
          -92.2973826,
          34.7381346
        ]
      },
      "properties": {
        "name": "Little Rock Central High School NHS, Little Rock, Arkansas",
        "arrival_day": 2,
        "arrival_time": "19:18"
      }
    },
    {
      "type": "Feature",
      "geometry": {
        "type": "Point",
        "coordinates": [
          -94.1798525,
          34.2939248
        ]
      },
      "properties": {
        "name": "Gauley River NRA, Lansing, 25862",
        "arrival_day": 2,
        "arrival_time": "23:19"
      }
    },
    {
      "type": "Feature",
      "geometry": {
        "type": "Point",
        "coordinates": [
          -94.4310733,
          35.388505
        ]
      },
      "properties": {
        "name": "Fort Smith NHS, Fort Smith, Arkansas",
        "arrival_day": 2,
        "arrival_time": "02:42"
      }
    },
    {
      "type": "Feature",
      "geometry": {
        "type": "Point",
        "coordinates": [
          -96.9789694,
          34.4937367
        ]
      },
      "properties": {
        "name": "Chickasaw NRA, Sulphur, Oklahoma",
        "arrival_day": 3,
        "arrival_time": "07:33"
      }
    },
    {
      "type": "Feature",
      "geometry": {
        "type": "Point",
        "coordinates": [
          -98.5456116,
          31.2638905
        ]
      },
      "properties": {
        "name": "Blackwell School NHS, Marfa, Texas",
        "arrival_day": 3,
        "arrival_time": "13:55"
      }
    },
    {
      "type": "Feature",
      "geometry": {
        "type": "Point",
        "coordinates": [
          -98.5456116,
          31.2638905
        ]
      },
      "properties": {
        "name": "Alibates Flint Quarries NM, Fritch, Texas",
        "arrival_day": 3,
        "arrival_time": "15:55"
      }
    },
    {
      "type": "Feature",
      "geometry": {
        "type": "Point",
        "coordinates": [
          -98.5456116,
          31.2638905
        ]
      },
      "properties": {
        "name": "Rio Grande WSR, Big Bend National Park, Texas",
        "arrival_day": 3,
        "arrival_time": "17:55"
      }
    },
    {
      "type": "Feature",
      "geometry": {
        "type": "Point",
        "coordinates": [
          -98.5456116,
          31.2638905
        ]
      },
      "properties": {
        "name": "Guadalupe Mountains NP, Salt Flat, Texas",
        "arrival_day": 4,
        "arrival_time": "19:55"
      }
    },
    {
      "type": "Feature",
      "geometry": {
        "type": "Point",
        "coordinates": [
          -98.5456116,
          31.2638905
        ]
      },
      "properties": {
        "name": "Fort Davis NHS, Fort Davis, Texas",
        "arrival_day": 4,
        "arrival_time": "21:55"
      }
    },
    {
      "type": "Feature",
      "geometry": {
        "type": "Point",
        "coordinates": [
          -98.5456116,
          31.2638905
        ]
      },
      "properties": {
        "name": "Big Bend NP, Big Bend National Park, Texas",
        "arrival_day": 4,
        "arrival_time": "23:55"
      }
    },
    {
      "type": "Feature",
      "geometry": {
        "type": "Point",
        "coordinates": [
          -98.5456116,
          31.2638905
        ]
      },
      "properties": {
        "name": "Big Thicket N PRES, Kountze, Texas",
        "arrival_day": 4,
        "arrival_time": "01:55"
      }
    },
    {
      "type": "Feature",
      "geometry": {
        "type": "Point",
        "coordinates": [
          -100.98844,
          29.466018
        ]
      },
      "properties": {
        "name": "Amistad NRA, Del Rio, Texas",
        "arrival_day": 5,
        "arrival_time": "07:23"
      }
    },
    {
      "type": "Feature",
      "geometry": {
        "type": "Point",
        "coordinates": [
          -98.4788872,
          29.3603458
        ]
      },
      "properties": {
        "name": "San Antonio Missions NHP, San Antonio, Texas",
        "arrival_day": 5,
        "arrival_time": "12:07"
      }
    },
    {
      "type": "Feature",
      "geometry": {
        "type": "Point",
        "coordinates": [
          -97.4817606,
          26.0049965
        ]
      },
      "properties": {
        "name": "Palo Alto Battlefield NHP, Brownsville, Texas",
        "arrival_day": 6,
        "arrival_time": "18:28"
      }
    },
    {
      "type": "Feature",
      "geometry": {
        "type": "Point",
        "coordinates": [
          -97.2990078,
          27.4243667
        ]
      },
      "properties": {
        "name": "Padre Island NS, Corpus Christi, Texas",
        "arrival_day": 6,
        "arrival_time": "22:15"
      }
    },
    {
      "type": "Feature",
      "geometry": {
        "type": "Point",
        "coordinates": [
          -93.0024144,
          31.6655406
        ]
      },
      "properties": {
        "name": "Cane River Creole NHP, Natchez, Louisiana",
        "arrival_day": 7,
        "arrival_time": "07:21"
      }
    },
    {
      "type": "Feature",
      "geometry": {
        "type": "Point",
        "coordinates": [
          -91.3855572,
          31.5470831
        ]
      },
      "properties": {
        "name": "Natchez NHP, Natchez, Mississippi",
        "arrival_day": 7,
        "arrival_time": "11:05"
      }
    },
    {
      "type": "Feature",
      "geometry": {
        "type": "Point",
        "coordinates": [
          -90.212145,
          32.340878
        ]
      },
      "properties": {
        "name": "Medgar and Myrlie Evers Home NM, Jackson, Mississippi",
        "arrival_day": 7,
        "arrival_time": "14:40"
      }
    },
    {
      "type": "Feature",
      "geometry": {
        "type": "Point",
        "coordinates": [
          -90.0647995,
          29.9548546
        ]
      },
      "properties": {
        "name": "New Orleans Jazz NHP, New Orleans, Louisiana",
        "arrival_day": 8,
        "arrival_time": "19:40"
      }
    },
    {
      "type": "Feature",
      "geometry": {
        "type": "Point",
        "coordinates": [
          -88.7865166,
          30.3988806
        ]
      },
      "properties": {
        "name": "Gulf Islands NS, Ocean Springs, Mississippi",
        "arrival_day": 8,
        "arrival_time": "23:09"
      }
    },
    {
      "type": "Feature",
      "geometry": {
        "type": "Point",
        "coordinates": [
          -81.2883856,
          25.8988938
        ]
      },
      "properties": {
        "name": "Big Cypress N PRES, Ochopee, Florida",
        "arrival_day": 9,
        "arrival_time": "11:11"
      }
    },
    {
      "type": "Feature",
      "geometry": {
        "type": "Point",
        "coordinates": [
          -80.3347359,
          25.4643962
        ]
      },
      "properties": {
        "name": "Biscayne NP, Homestead, Florida",
        "arrival_day": 9,
        "arrival_time": "14:23"
      }
    },
    {
      "type": "Feature",
      "geometry": {
        "type": "Point",
        "coordinates": [
          -80.8243973,
          28.9272225
        ]
      },
      "properties": {
        "name": "Canaveral NS, New Smyrna Beach, Florida",
        "arrival_day": 10,
        "arrival_time": "20:46"
      }
    },
    {
      "type": "Feature",
      "geometry": {
        "type": "Point",
        "coordinates": [
          -81.2780349,
          29.8611867
        ]
      },
      "properties": {
        "name": "Fort Matanzas NM, St. Augustine, Florida",
        "arrival_day": 10,
        "arrival_time": "00:02"
      }
    },
    {
      "type": "Feature",
      "geometry": {
        "type": "Point",
        "coordinates": [
          -81.3143815,
          29.8993771
        ]
      },
      "properties": {
        "name": "Castillo de San Marcos NM, St. Augustine, Florida",
        "arrival_day": 10,
        "arrival_time": "02:05"
      }
    },
    {
      "type": "Feature",
      "geometry": {
        "type": "Point",
        "coordinates": [
          -81.4959844,
          30.3848466
        ]
      },
      "properties": {
        "name": "Timucuan Ecological and Historic PRES, Jacksonville, Florida",
        "arrival_day": 10,
        "arrival_time": "04:43"
      }
    },
    {
      "type": "Feature",
      "geometry": {
        "type": "Point",
        "coordinates": [
          -81.4959844,
          30.3848466
        ]
      },
      "properties": {
        "name": "Fort Caroline N MEM, Jacksonville, Florida",
        "arrival_day": 11,
        "arrival_time": "06:43"
      }
    },
    {
      "type": "Feature",
      "geometry": {
        "type": "Point",
        "coordinates": [
          -81.3884377,
          31.1600988
        ]
      },
      "properties": {
        "name": "Fort Frederica NM, St. Simons Island, Georgia",
        "arrival_day": 11,
        "arrival_time": "09:41"
      }
    },
    {
      "type": "Feature",
      "geometry": {
        "type": "Point",
        "coordinates": [
          -80.6700904,
          32.432537
        ]
      },
      "properties": {
        "name": "Reconstruction Era NHP, Beaufort, South Carolina",
        "arrival_day": 11,
        "arrival_time": "13:27"
      }
    },
    {
      "type": "Feature",
      "geometry": {
        "type": "Point",
        "coordinates": [
          -79.8278953,
          32.8467455
        ]
      },
      "properties": {
        "name": "Charles Pinckney NHS, Mount Pleasant, South Carolina",
        "arrival_day": 11,
        "arrival_time": "16:28"
      }
    },
    {
      "type": "Feature",
      "geometry": {
        "type": "Point",
        "coordinates": [
          -82.0256516,
          34.1678411
        ]
      },
      "properties": {
        "name": "Ninety Six NHS, Ninety Six, South Carolina",
        "arrival_day": 12,
        "arrival_time": "21:18"
      }
    },
    {
      "type": "Feature",
      "geometry": {
        "type": "Point",
        "coordinates": [
          -83.6018436,
          32.837227
        ]
      },
      "properties": {
        "name": "Ocmulgee NHP, Macon, Georgia",
        "arrival_day": 12,
        "arrival_time": "01:38"
      }
    },
    {
      "type": "Feature",
      "geometry": {
        "type": "Point",
        "coordinates": [
          -84.3925601,
          32.0365845
        ]
      },
      "properties": {
        "name": "Jimmy Carter NHP, Plains, Georgia",
        "arrival_day": 12,
        "arrival_time": "04:56"
      }
    },
    {
      "type": "Feature",
      "geometry": {
        "type": "Point",
        "coordinates": [
          -85.7084448,
          32.4288729
        ]
      },
      "properties": {
        "name": "Tuskegee Institute NHS, Tuskegee, 36088",
        "arrival_day": 13,
        "arrival_time": "08:24"
      }
    },
    {
      "type": "Feature",
      "geometry": {
        "type": "Point",
        "coordinates": [
          -85.6849644,
          32.4579178
        ]
      },
      "properties": {
        "name": "Tuskegee Airmen NHS, Tuskegee, 36083",
        "arrival_day": 13,
        "arrival_time": "10:26"
      }
    },
    {
      "type": "Feature",
      "geometry": {
        "type": "Point",
        "coordinates": [
          -86.8144977,
          33.5153921
        ]
      },
      "properties": {
        "name": "Birmingham Civil Rights NM, Birmingham, Alabama",
        "arrival_day": 13,
        "arrival_time": "14:13"
      }
    },
    {
      "type": "Feature",
      "geometry": {
        "type": "Point",
        "coordinates": [
          -90.3697739,
          33.9711973
        ]
      },
      "properties": {
        "name": "Emmett Till and Mamie Till-Mobley NM, Sumner, Mississippi",
        "arrival_day": 14,
        "arrival_time": "19:58"
      }
    },
    {
      "type": "Feature",
      "geometry": {
        "type": "Point",
        "coordinates": [
          -90.4068,
          38.5831
        ]
      },
      "properties": {
        "name": "Kirkwood, MO",
        "arrival_day": 14,
        "arrival_time": "01:45"
      }
    }
  ]
}