{
  "type": "FeatureCollection",
  "features": [
    {
      "type": "Feature",
      "geometry": {
        "type": "LineString",
        "coordinates": [
          [
            -90.4068,
            38.5831
          ],
          [
            -89.6448765,
            39.7973527
          ],
          [
            -87.5360877,
            38.6775722
          ],
          [
            -87.8625811,
            36.4831363
          ],
          [
            -90.4068,
            38.5831
          ]
        ]
      },
      "properties": {
        "trip_number": 1,
        "total_sites": 4,
        "total_distance_miles": 413.9,
        "total_days": 1.38
      }
    },
    {
      "type": "Feature",
      "geometry": {
        "type": "Point",
        "coordinates": [
          -90.4068,
          38.5831
        ]
      },
      "properties": {
        "name": "Kirkwood, MO",
        "arrival_day": 1,
        "arrival_time": "06:00"
      }
    },
    {
      "type": "Feature",
      "geometry": {
        "type": "Point",
        "coordinates": [
          -89.6448765,
          39.7973527
        ]
      },
      "properties": {
        "name": "Springfield 1908 Race Riot National Monument, Springfield, Illinois",
        "arrival_day": 1,
        "arrival_time": "09:41"
      }
    },
    {
      "type": "Feature",
      "geometry": {
        "type": "Point",
        "coordinates": [
          -87.5360877,
          38.6775722
        ]
      },
      "properties": {
        "name": "George Rogers Clark NHP, Vincennes, Indiana",
        "arrival_day": 1,
        "arrival_time": "14:10"
      }
    },
    {
      "type": "Feature",
      "geometry": {
        "type": "Point",
        "coordinates": [
          -87.8625811,
          36.4831363
        ]
      },
      "properties": {
        "name": "Fort Donelson NB, Dover, Tennessee",
        "arrival_day": 2,
        "arrival_time": "18:56"
      }
    },
    {
      "type": "Feature",
      "geometry": {
        "type": "Point",
        "coordinates": [
          -90.4068,
          38.5831
        ]
      },
      "properties": {
        "name": "Kirkwood, MO",
        "arrival_day": 2,
        "arrival_time": "22:35"
      }
    }
  ]
}