{
  "type": "FeatureCollection",
  "features": [
    {
      "type": "Feature",
      "geometry": {
        "type": "LineString",
        "coordinates": [
          [
            -90.4068,
            38.5831
          ],
          [
            -89.6448765,
            39.7973527
          ],
          [
            -91.3454687,
            41.6707487
          ],
          [
            -89.6118533,
            43.0817879
          ],
          [
            -87.6096053,
            41.6928561
          ],
          [
            -86.0547162,
            44.8111976
          ],
          [
            -86.6238153,
            46.4237239
          ],
          [
            -88.4523448,
            47.2440788
          ],
          [
            -88.5637537,
            47.1229405
          ],
          [
            -90.8887619,
            46.9463335
          ],
          [
            -93.1042897,
            44.9470685
          ],
          [
            -96.3210255,
            44.0095584
          ],
          [
            -96.7332497,
            40.2658382
          ],
          [
            -99.1018604,
            38.1881528
          ],
          [
            -97.5172885,
            35.4737199
          ],
          [
            -96.9789694,
            34.4937367
          ],
          [
            -94.1798525,
            34.2939248
          ],
          [
            -93.0024144,
            31.6655406
          ],
          [
            -91.3855572,
            31.5470831
          ],
          [
            -90.0647995,
            29.9548546
          ],
          [
            -88.7865166,
            30.3988806
          ],
          [
            -90.212145,
            32.340878
          ],
          [
            -90.3697739,
            33.9711973
          ],
          [
            -92.2973826,
            34.7381346
          ],
          [
            -92.4479108,
            35.2048883
          ],
          [
            -92.4479108,
            35.2048883
          ],
          [
            -92.4479108,
            35.2048883
          ],
          [
            -94.4310733,
            35.388505
          ],
          [
            -94.7065998,
            37.8436759
          ],
          [
            -94.4233448,
            39.0937292
          ],
          [
            -90.4068,
            38.5831
          ]
        ]
      },
      "properties": {
        "trip_number": 4,
        "total_sites": 30,
        "total_distance_miles": 3663.2,
        "total_days": 10.65
      }
    },
    {
      "type": "Feature",
      "geometry": {
        "type": "Point",
        "coordinates": [
          -90.4068,
          38.5831
        ]
      },
      "properties": {
        "name": "Kirkwood, MO",
        "arrival_day": 1,
        "arrival_time": "06:00"
      }
    },
    {
      "type": "Feature",
      "geometry": {
        "type": "Point",
        "coordinates": [
          -89.6448765,
          39.7973527
        ]
      },
      "properties": {
        "name": "Springfield 1908 Race Riot National Monument, Springfield, Illinois",
        "arrival_day": 1,
        "arrival_time": "09:41"
      }
    },
    {
      "type": "Feature",
      "geometry": {
        "type": "Point",
        "coordinates": [
          -91.3454687,
          41.6707487
        ]
      },
      "properties": {
        "name": "Herbert Hoover NHS, West Branch, Iowa",
        "arrival_day": 1,
        "arrival_time": "14:32"
      }
    },
    {
      "type": "Feature",
      "geometry": {
        "type": "Point",
        "coordinates": [
          -89.6118533,
          43.0817879
        ]
      },
      "properties": {
        "name": "Ice Age National Scenic Trail, Cross Plains, Wisconsin",
        "arrival_day": 2,
        "arrival_time": "18:55"
      }
    },
    {
      "type": "Feature",
      "geometry": {
        "type": "Point",
        "coordinates": [
          -87.6096053,
          41.6928561
        ]
      },
      "properties": {
        "name": "Pullman NHP, Chicago, Illinois",
        "arrival_day": 2,
        "arrival_time": "23:27"
      }
    },
    {
      "type": "Feature",
      "geometry": {
        "type": "Point",
        "coordinates": [
          -86.0547162,
          44.8111976
        ]
      },
      "properties": {
        "name": "Sleeping Bear Dunes NL, Empire, Michigan",
        "arrival_day": 2,
        "arrival_time": "05:37"
      }
    },
    {
      "type": "Feature",
      "geometry": {
        "type": "Point",
        "coordinates": [
          -86.6238153,
          46.4237239
        ]
      },
      "properties": {
        "name": "Pictured Rocks NL, Munising, Michigan",
        "arrival_day": 3,
        "arrival_time": "09:42"
      }
    },
    {
      "type": "Feature",
      "geometry": {
        "type": "Point",
        "coordinates": [
          -88.4523448,
          47.2440788
        ]
      },
      "properties": {
        "name": "Keweenaw NHP, Calumet, Michigan",
        "arrival_day": 3,
        "arrival_time": "13:34"
      }
    },
    {
      "type": "Feature",
      "geometry": {
        "type": "Point",
        "coordinates": [
          -88.5637537,
          47.1229405
        ]
      },
      "properties": {
        "name": "Isle Royale NP, Houghton, Michigan",
        "arrival_day": 3,
        "arrival_time": "15:44"
      }
    },
    {
      "type": "Feature",
      "geometry": {
        "type": "Point",
        "coordinates": [
          -90.8887619,
          46.9463335
        ]
      },
      "properties": {
        "name": "Apostle Islands NL, Bayfield, Wisconsin",
        "arrival_day": 4,
        "arrival_time": "19:44"
      }
    },
    {
      "type": "Feature",
      "geometry": {
        "type": "Point",
        "coordinates": [
          -93.1042897,
          44.9470685
        ]
      },
      "properties": {
        "name": "Mississippi NRRA, St Paul, Minnesota",
        "arrival_day": 4,
        "arrival_time": "00:54"
      }
    },
    {
      "type": "Feature",
      "geometry": {
        "type": "Point",
        "coordinates": [
          -96.3210255,
          44.0095584
        ]
      },
      "properties": {
        "name": "Pipestone NM, Pipestone, Minnesota",
        "arrival_day": 5,
        "arrival_time": "06:00"
      }
    },
    {
      "type": "Feature",
      "geometry": {
        "type": "Point",
        "coordinates": [
          -96.7332497,
          40.2658382
        ]
      },
      "properties": {
        "name": "Homestead NHP, Beatrice, Nebraska",
        "arrival_day": 5,
        "arrival_time": "12:43"
      }
    },
    {
      "type": "Feature",
      "geometry": {
        "type": "Point",
        "coordinates": [
          -99.1018604,
          38.1881528
        ]
      },
      "properties": {
        "name": "Fort Larned NHS, Larned, Kansas",
        "arrival_day": 6,
        "arrival_time": "18:11"
      }
    },
    {
      "type": "Feature",
      "geometry": {
        "type": "Point",
        "coordinates": [
          -97.5172885,
          35.4737199
        ]
      },
      "properties": {
        "name": "Oklahoma City N MEM, Oklahoma City, Oklahoma",
        "arrival_day": 6,
        "arrival_time": "23:56"
      }
    },
    {
      "type": "Feature",
      "geometry": {
        "type": "Point",
        "coordinates": [
          -96.9789694,
          34.4937367
        ]
      },
      "properties": {
        "name": "Chickasaw NRA, Sulphur, Oklahoma",
        "arrival_day": 6,
        "arrival_time": "03:17"
      }
    },
    {
      "type": "Feature",
      "geometry": {
        "type": "Point",
        "coordinates": [
          -94.1798525,
          34.2939248
        ]
      },
      "properties": {
        "name": "Gauley River NRA, Lansing, 25862",
        "arrival_day": 7,
        "arrival_time": "08:11"
      }
    },
    {
      "type": "Feature",
      "geometry": {
        "type": "Point",
        "coordinates": [
          -93.0024144,
          31.6655406
        ]
      },
      "properties": {
        "name": "Cane River Creole NHP, Natchez, Louisiana",
        "arrival_day": 7,
        "arrival_time": "13:42"
      }
    },
    {
      "type": "Feature",
      "geometry": {
        "type": "Point",
        "coordinates": [
          -91.3855572,
          31.5470831
        ]
      },
      "properties": {
        "name": "Natchez NHP, Natchez, Mississippi",
        "arrival_day": 7,
        "arrival_time": "17:26"
      }
    },
    {
      "type": "Feature",
      "geometry": {
        "type": "Point",
        "coordinates": [
          -90.0647995,
          29.9548546
        ]
      },
      "properties": {
        "name": "New Orleans Jazz NHP, New Orleans, Louisiana",
        "arrival_day": 8,
        "arrival_time": "21:53"
      }
    },
    {
      "type": "Feature",
      "geometry": {
        "type": "Point",
        "coordinates": [
          -88.7865166,
          30.3988806
        ]
      },
      "properties": {
        "name": "Gulf Islands NS, Ocean Springs, Mississippi",
        "arrival_day": 8,
        "arrival_time": "01:22"
      }
    },
    {
      "type": "Feature",
      "geometry": {
        "type": "Point",
        "coordinates": [
          -90.212145,
          32.340878
        ]
      },
      "properties": {
        "name": "Medgar and Myrlie Evers Home NM, Jackson, Mississippi",
        "arrival_day": 9,
        "arrival_time": "06:14"
      }
    },
    {
      "type": "Feature",
      "geometry": {
        "type": "Point",
        "coordinates": [
          -90.3697739,
          33.9711973
        ]
      },
      "properties": {
        "name": "Emmett Till and Mamie Till-Mobley NM, Sumner, Mississippi",
        "arrival_day": 9,
        "arrival_time": "10:17"
      }
    },
    {
      "type": "Feature",
      "geometry": {
        "type": "Point",
        "coordinates": [
          -92.2973826,
          34.7381346
        ]
      },
      "properties": {
        "name": "Little Rock Central High School NHS, Little Rock, Arkansas",
        "arrival_day": 9,
        "arrival_time": "14:30"
      }
    },
    {
      "type": "Feature",
      "geometry": {
        "type": "Point",
        "coordinates": [
          -92.4479108,
          35.2048883
        ]
      },
      "properties": {
        "name": "Arkansas Post N MEM, Gillett, Arkansas",
        "arrival_day": 9,
        "arrival_time": "17:06"
      }
    },
    {
      "type": "Feature",
      "geometry": {
        "type": "Point",
        "coordinates": [
          -92.4479108,
          35.2048883
        ]
      },
      "properties": {
        "name": "Pea Ridge NMP, Garfield, Arkansas",
        "arrival_day": 10,
        "arrival_time": "19:06"
      }
    },
    {
      "type": "Feature",
      "geometry": {
        "type": "Point",
        "coordinates": [
          -92.4479108,
          35.2048883
        ]
      },
      "properties": {
        "name": "Buffalo NR, St. Joe, Arkansas",
        "arrival_day": 10,
        "arrival_time": "21:06"
      }
    },
    {
      "type": "Feature",
      "geometry": {
        "type": "Point",
        "coordinates": [
          -94.4310733,
          35.388505
        ]
      },
      "properties": {
        "name": "Fort Smith NHS, Fort Smith, Arkansas",
        "arrival_day": 10,
        "arrival_time": "01:08"
      }
    },
    {
      "type": "Feature",
      "geometry": {
        "type": "Point",
        "coordinates": [
          -94.7065998,
          37.8436759
        ]
      },
      "properties": {
        "name": "Fort Scott NHS, Fort Scott, Kansas",
        "arrival_day": 11,
        "arrival_time": "06:13"
      }
    },
    {
      "type": "Feature",
      "geometry": {
        "type": "Point",
        "coordinates": [
          -94.4233448,
          39.0937292
        ]
      },
      "properties": {
        "name": "Harry S Truman NHS, Independence, Missouri",
        "arrival_day": 11,
        "arrival_time": "09:48"
      }
    },
    {
      "type": "Feature",
      "geometry": {
        "type": "Point",
        "coordinates": [
          -90.4068,
          38.5831
        ]
      },
      "properties": {
        "name": "Kirkwood, MO",
        "arrival_day": 11,
        "arrival_time": "13:46"
      }
    }
  ]
}