{
  "type": "FeatureCollection",
  "features": [
    {
      "type": "Feature",
      "geometry": {
        "type": "LineString",
        "coordinates": [
          [
            -90.4068,
            38.5831
          ],
          [
            -90.3697739,
            33.9711973
          ],
          [
            -90.212145,
            32.340878
          ],
          [
            -91.3855572,
            31.5470831
          ],
          [
            -93.0024144,
            31.6655406
          ],
          [
            -90.4068,
            38.5831
          ]
        ]
      },
      "properties": {
        "trip_number": 3,
        "total_sites": 4,
        "total_distance_miles": 1115.1,
        "total_days": 3
      }
    },
    {
      "type": "Feature",
      "geometry": {
        "type": "Point",
        "coordinates": [
          -90.4068,
          38.5831
        ]
      },
      "properties": {
        "name": "Kirkwood, MO",
        "arrival_day": 1,
        "arrival_time": "06:00"
      }
    },
    {
      "type": "Feature",
      "geometry": {
        "type": "Point",
        "coordinates": [
          -90.3697739,
          33.9711973
        ]
      },
      "properties": {
        "name": "Emmett Till and Mamie Till-Mobley NM, Sumner, Mississippi",
        "arrival_day": 1,
        "arrival_time": "13:47"
      }
    },
    {
      "type": "Feature",
      "geometry": {
        "type": "Point",
        "coordinates": [
          -90.212145,
          32.340878
        ]
      },
      "properties": {
        "name": "Medgar and Myrlie Evers Home NM, Jackson, Mississippi",
        "arrival_day": 1,
        "arrival_time": "17:50"
      }
    },
    {
      "type": "Feature",
      "geometry": {
        "type": "Point",
        "coordinates": [
          -91.3855572,
          31.5470831
        ]
      },
      "properties": {
        "name": "Natchez NHP, Natchez, Mississippi",
        "arrival_day": 2,
        "arrival_time": "06:25"
      }
    },
    {
      "type": "Feature",
      "geometry": {
        "type": "Point",
        "coordinates": [
          -93.0024144,
          31.6655406
        ]
      },
      "properties": {
        "name": "Cane River Creole NHP, Natchez, Louisiana",
        "arrival_day": 2,
        "arrival_time": "10:09"
      }
    },
    {
      "type": "Feature",
      "geometry": {
        "type": "Point",
        "coordinates": [
          -90.4068,
          38.5831
        ]
      },
      "properties": {
        "name": "Kirkwood, MO",
        "arrival_day": 1,
        "arrival_time": "06:00"
      }
    }
  ]
}