{
  "type": "FeatureCollection",
  "features": [
    {
      "type": "Feature",
      "geometry": {
        "type": "LineString",
        "coordinates": [
          [
            -90.4068,
            38.5831
          ],
          [
            -87.8625811,
            36.4831363
          ],
          [
            -86.434846,
            35.881861
          ],
          [
            -86.2820081,
            35.7730076
          ],
          [
            -86.2820081,
            35.7730076
          ],
          [
            -86.2820081,
            35.7730076
          ],
          [
            -82.8295399,
            36.1629401
          ],
          [
            -82.4528575,
            35.2727825
          ],
          [
            -90.4068,
            38.5831
          ]
        ]
      },
      "properties": {
        "trip_number": 1,
        "total_sites": 7,
        "total_distance_miles": 1057.4,
        "total_days": 3
      }
    },
    {
      "type": "Feature",
      "geometry": {
        "type": "Point",
        "coordinates": [
          -90.4068,
          38.5831
        ]
      },
      "properties": {
        "name": "Kirkwood, MO",
        "arrival_day": 1,
        "arrival_time": "06:00"
      }
    },
    {
      "type": "Feature",
      "geometry": {
        "type": "Point",
        "coordinates": [
          -87.8625811,
          36.4831363
        ]
      },
      "properties": {
        "name": "Fort Donelson NB, Dover, Tennessee",
        "arrival_day": 1,
        "arrival_time": "11:39"
      }
    },
    {
      "type": "Feature",
      "geometry": {
        "type": "Point",
        "coordinates": [
          -86.434846,
          35.881861
        ]
      },
      "properties": {
        "name": "Stones River NB, Murfreesboro, Tennessee",
        "arrival_day": 1,
        "arrival_time": "15:16"
      }
    },
    {
      "type": "Feature",
      "geometry": {
        "type": "Point",
        "coordinates": [
          -86.2820081,
          35.7730076
        ]
      },
      "properties": {
        "name": "Great Smoky Mountains NP, Gatlinburg, Tennessee",
        "arrival_day": 1,
        "arrival_time": "17:28"
      }
    },
    {
      "type": "Feature",
      "geometry": {
        "type": "Point",
        "coordinates": [
          -86.2820081,
          35.7730076
        ]
      },
      "properties": {
        "name": "Big South Fork NRRA, Oneida, Tennessee",
        "arrival_day": 1,
        "arrival_time": "19:28"
      }
    },
    {
      "type": "Feature",
      "geometry": {
        "type": "Point",
        "coordinates": [
          -86.2820081,
          35.7730076
        ]
      },
      "properties": {
        "name": "Obed WSR, Wartburg, Tennessee",
        "arrival_day": 2,
        "arrival_time": "09:28"
      }
    },
    {
      "type": "Feature",
      "geometry": {
        "type": "Point",
        "coordinates": [
          -82.8295399,
          36.1629401
        ]
      },
      "properties": {
        "name": "Andrew Johnson NHS, Greeneville, Tennessee",
        "arrival_day": 2,
        "arrival_time": "15:00"
      }
    },
    {
      "type": "Feature",
      "geometry": {
        "type": "Point",
        "coordinates": [
          -82.4528575,
          35.2727825
        ]
      },
      "properties": {
        "name": "Carl Sandburg Home NHS, Flat Rock, North Carolina",
        "arrival_day": 2,
        "arrival_time": "18:10"
      }
    },
    {
      "type": "Feature",
      "geometry": {
        "type": "Point",
        "coordinates": [
          -90.4068,
          38.5831
        ]
      },
      "properties": {
        "name": "Kirkwood, MO",
        "arrival_day": 1,
        "arrival_time": "06:00"
      }
    }
  ]
}